Station Name,Street Address,Latitude,Longitude
West Valley School,8900 E. Buckeye Ave.,47.68229,-117.285339
WADOC ABERDEEN FO 2,304 W Wishkah St,46.97314,-123.820847
"Walmart 2037 (Aberdeen, WA)",909 E Wishkah St,46.97642,-123.80708
415 West Heron Street (US-3HE-7VZ-1C),415 West Heron Street,46.97114,-123.820993
415 West Heron Street (US-3HE-7VZ-2C),415 West Heron Street,46.97117,-123.82092
415 West Heron Street (US-3HE-7VZ-2B),415 West Heron Street,46.97117,-123.82093
415 West Heron Street (US-3HE-7VZ-2A),415 West Heron Street,46.97114,-123.82099
415 West Heron Street (US-3HE-7VZ-1B),415 West Heron Street,46.97114,-123.820991
"Aberdeen, WA - Tesla Supercharger",416 Wishkah Street,46.976679,-123.813485
WADOC ABERDEEN FO 1,304 W Wishkah St,46.973103,-123.820901
415 West Heron Street (US-3HE-7VZ-1A),415 West Heron Street,46.9708,-123.82138
SIA E GARAGE F.2 #4,9000 W. Airport Drive,47.625006,-117.539796
SIA E GARAGE F.2 #3,9000 W. Airport Drive,47.625021,-117.539667
Days Inn & Suites,1215 S Garfield Rd,47.6441402329576,-117.576707512147
SIA E GARAGE F.2 #6,9000 W. Airport Drive,47.625087,-117.539968
SIA E GARAGE F.2 #2,9000 W. Airport Drive,47.625021,-117.539657
SIA E GARAGE F.2 #5,9000 W. Airport Drive,47.625019,-117.539831
STCU Airway Heights,10811 W ST RT 2 HWY,47.642531,-117.561399
SIA E GARAGE F.2 #1,9000 W. Airport Drive,47.625122,-117.539614
Island Hospital Behind M.O.B. Building,1211 24th Street,48.5006578,-122.6159562
Anacortes Public Parking,559 Q Ave,48.517768,-122.610743
ANACORTESEV N CH WEST EV1,5TH Q Ave,48.518102,-122.611203
LEVEL II CHARGE LEVEL II CHARGE,1014 18th St,48.507864,-122.613612
1203 Parking Lot,1203 26th Street,48.5012896,-122.6152529
Safeway 911 11th St,911 11th Street,48.5126865,-122.611788
SAMISH NATION CANNERY SOUTH 2,715 Seafarers Way,48.510044,-122.608185
ANACORTESEV LIBRARY EV,M Ave. and 9th near Library,48.514381,-122.616919
ANACORTESEV N CH WEST EV#2,5TH Q Ave,48.518179,-122.611202
SAMISH NATION CANNERY SOUTH 1,715 Seafarers Way,48.51004,-122.608116
Sunrise Inn Villas & Suites - Tesla Destination,905  20th st,48.50598,-122.6117
"Walgreens - Anacortes, WA #7131",909 17th Street,48.508154,-122.611842
ANACORTESEV E CH PARKING #3,6 Q Ave,48.517744,-122.610748
Majestic Inn & Spa - Tesla Destination,419 Commercial Ave,48.51854,-122.61215
Safeway 3532 172nd St,3532 172nd Street Northeast,48.151766,-122.1815615
Angel of the Winds Casino - Tesla Destination,3438 Stoluckquamish Ln,48.214249,-122.184142
Angel of the Winds Casino - Tesla Supercharger,3438 Stoluckquamish Lane,48.212441,-122.183491
VILLASARLINGTON STATION 1,3328 185th Pl NE,48.164038,-122.184364
Safeway 20500 Olympic Place,20500 Olympic Place,48.1820905,-122.1277345
Alexander's Lodge & Restaurant - Tesla Destination,37515 SR 706 E,46.751382,-121.937189
Best Western Mountainview Inn,401 8th St SW,47.3016,-122.234444
Four Lakes Apartments,6821 Udall Place Southeast,47.24745538956,-122.20054897354
The Outlet Collection Seattle Regal Cinema,1101 Outlet Collection Way,47.2994605,-122.2425395
Holiday Inn Express and Suites Auburn,507 C. Street SW,47.302615,-122.2326212
The Outlet Collection Seattle,1101 Outlet Collection Way,47.29766425,-122.2455995
AUBURN CENTER GREEN RIVER #1,1221 D St. NE,47.318711,-122.225391
Meadows on Lea Hill,12505 SE 312th St,47.322103,-122.173962
"The Outlet Collection ( Auburn, WA)",1101 Outlet Collection Way,47.29771,-122.24911
"Walgreens at 1701 Auburn Way, Auburn",1701 Auburn Way S,47.293522,-122.2129365
"Walgreens at 1416 Harvey Rd, Auburn",1416 Harvey Rd,47.3205725,-122.220257
Pillar Properties - The Verge,109 S Division St,47.3064421,-122.229972
Albertsons 4010 A Street SE,4010 A Street SE,47.2727635,-122.2275765
HINSHAWSHONDA SHOP 01,2605 Auburn Way N,47.330144,-122.22253
Green River,1103 Ninth Street SE,47.2999,-122.2135
The Outlet Collection - Tesla Supercharger,1101 Outlet Collection Way,47.29799,-122.248532
Amazon Fresh Seattle-Aurora DCFC,13025 Aurora Ave N,47.725382,-122.346419
Aurora Shopping Center,13025 Aurora Ave N,47.7253287,-122.3465598
521606-CIVICA OFFICE COMMONS,225-108TH AVE NE,47.6123,-122.1966
Northwest Chevrolet Of Bellingham,3891 NORTHWEST AVE,48.78587,-122.506288
CIBO POINT WHITE DR,4569 Point White Dr. NE,47.605226,-122.548468
"Walgreens - Bainbridge Island, WA #15673",1315 Wintergreen Lane NE,47.6357914,-122.5148321
CHARGEPOINT T&C BAINBRIDGE,343 Winslow Way E,47.62419,-122.517509
WINSLOW WAY WINSLOW #1,232-240 Winslow Way E,47.624921,-122.51934
ROLLING BAY LEFT,10861 Manitou Park Blvd NE,47.66201,-122.501966
VM CHARGERS VM BAINBRIDGE 1,1329 Wintergreen Lane Northeast,47.637692,-122.513582
Bainbridge Town Square - ZEV Co-Op Public,280 Madison Ave N,47.62624,-122.52045
ROLLING BAY RIGHT,10861 Manitou Park Blvd NE,47.662012,-122.501937
Stonehill Market,17702 Northeast 122nd Avenue,45.75095984777836,-122.54757990674624
BG CITY HALL CITY HALL 1,109 SW 1st St,45.779802,-122.539517
BG CITY HALL CITY HALL 2,109 SW 1st St,45.779686,-122.539513
Belfair Log Plaza,23730 WA-3,47.451373,-122.826865
Safeway 23961 N.e. State Route 3,23961 N.e. State Route 3,47.4538545,-122.823114
BLOCK 16 FB BELLEVUE 9,1288 123rd Ave NE,47.621751,-122.175943
LINC SQUARE EXP LSS P2 109-110,424 104th Ave NE,47.614311,-122.201051
LINC SQUARE EXP LSS P2 100-101,414 104th Ave NE,47.614752,-122.200829
LINC SQUARE EXP LSS P2 92-93,500 Bellevue Way NE,47.614649,-122.200751
NORAM BLOCK 20 #7,1550 121st Ave NE,47.622478,-122.177542
NORAM BLOCK 20 #5,1550 121st Ave NE,47.622496,-122.177518
NORAM BLOCK 20 #4,1550 121st Ave NE,47.622486,-122.177564
NORAM BLOCK 20 #8,1550 121st Ave NE,47.622506,-122.177537
NORAM BLOCK 7 #15,1525 121st Ave NE,47.622476,-122.17888
NORAM BLOCK 7 #10,1525 121st Ave NE,47.622478,-122.178862
AMZ SEA106-2,10550 NE 10th St,47.619799,-122.199793
Hilton Garden Inn Bellevue,10777 Northeast 10th Street,47.6188924,-122.1969419
AMZ SEA106-5,10550 NE 10th St,47.61977,-122.199722
LINCOLN SQUARE LS NORTH DUAL 4,110 Bellevue Way NE,47.616294,-122.201029
NORAM BLOCK 7 #1,1525 121st Ave NE,47.622443,-122.178877
NORAM BLOCK 7 #12,1525 121st Ave NE,47.622449,-122.178919
BLOCK 16 FB BELLEVUE 2,1288 123rd Ave NE,47.621837,-122.175922
BELLEVUE SQUARE BELL SQ NORTH 2,Bellevue Square - North Building104th Ave NE,47.616939,-122.203004
ALLEY 111 CP2,11011 NE 9th St,47.618059,-122.192221
NORAM BLOCK 7 #8,1525 121st Ave NE,47.622438,-122.178891
NORAM BLOCK 7 #13,1525 121st Ave NE,47.622458,-122.178904
NORAM BLOCK 7 #6,1525 121st Ave NE,47.622439,-122.178864
ALLEY 111 CP1,11011 NE 9th St,47.618104,-122.19222
KORE Bellevue Technology Center,2125 158th Court NE Suite 110,47.6303953,-122.1284522
LINC SQUARE EXP LSS P2 106-107,440 Bellevue Way NE,47.614503,-122.201196
AMZ SEA106-1,10550 NE 10th St,47.619761,-122.199755
NORAM BLOCK 20 #6,1550 121st Ave NE,47.622504,-122.17756
NORAM BLOCK 7 #3,1525 121st Ave NE,47.622458,-122.178882
EASTGATE 15395 DUAL - #2,15395 SE 30th Pl,47.582154,-122.136594
"Eight Eighty-Eight Bellevue, LLC",888 108th Avenue NE,47.6184362,-122.1962934
Hampton Greens,4747 148th Ave NE,47.653125,-122.143971
ALLEY 111 CP8,11011 NE 9th St,47.617771,-122.192224
ALLEY 111 CP7,11011 NE 9th St,47.617821,-122.192223
BLOCK 16 FB BELLEVUE 16,1288 123rd Ave NE,47.622008,-122.175897
NORAM BLOCK 7 #2,1525 121st Ave NE,47.62245,-122.17886
ALLEY 111 CP6,11011 NE 9th St,47.617862,-122.192221
ALLEY 111 CP4,11011 NE 9th St,47.617957,-122.192223
LINCOLN SQUARE LS NORTH DUAL 3,110 Bellevue Way NE,47.616363,-122.201035
LINC SQUARE EXP LSS P2 102-103,440 Bellevue Way NE,47.614517,-122.200807
BELLEVUE PLACE BELL PLACE #2,575 Bellevue Way NE,47.618421,-122.20129
NORAM BLOCK 7 #14,1525 121st Ave NE,47.622467,-122.178891
LINC SQUARE EXP LSS P2 96 97,424 104th Ave NE,47.614302,-122.200871
LINC SQUARE EXP LSS P2 123-124,424 104th Ave NE,47.614315,-122.201099
NORAM BLOCK 7 #11,1525 121st Ave NE,47.622435,-122.178878
CCB CCB 1,500 108th Ave NE,47.61479,-122.195543
NORAM BLOCK 7 #7,1525 121st Ave NE,47.622463,-122.178858
805 156th NE Bellevue WA,805 156th NE,47.617634,-122.133439
ALLEY 111 CP3,11011 NE 9th St,47.618012,-122.192224
NORAM BLOCK 20 #10,1550 121st Ave NE,47.622495,-122.177544
NORAM BLOCK 20 #9,1550 121st Ave NE,47.622484,-122.17752
LNI Bellevue 120th NE,616 120th Aveneue NE,47.61541,-122.179484
NORAM BLOCK 7 #4,1525 121st Ave NE,47.622447,-122.178896
NORAM BLOCK 7 #9,1525 121st Ave NE,47.62244,-122.178907
The Meyden,10333 Main Street,47.6098443,-122.2024273
BELLEVUE SQUARE BELL SQ WEST #4,600 100th Ave NE,47.615943,-122.205532
BELLEVUE SQUARE BELL SQ NORTH 3,Bellevue Square - North Building104th Ave NE,47.616865,-122.202993
Courtyard by Marriott Seattle Bellevue/Downtown - Tesla Destination,11010 NE 8th St,47.617601,-122.193492
Marriott Bellevue - Tesla Destination,200 110th Ave,47.611844,-122.193618
112th at 12th Office Building,1100 112th Ave NE,47.620163,-122.190604
BLOCK 16 FB BELLEVUE 3,1288 123rd Ave NE,47.621852,-122.175836
AMC Factoria 8,3505 Factoria Blvd Se,47.5786615,-122.1704435
Marriott AC Bellevue - Tesla Destination,208 106th Pl NE,47.612345,-122.197702
Hilton Bellevue - Tesla Destination,300 112th Ave SE,47.607592,-122.189582
LINC SQUARE EXP LSS P2 104-105,410 Bellevue Way NE,47.614456,-122.200654
LINC SQUARE EXP LSE P2 #1,410 Bellevue Way NE,47.614157,-122.20117
531614 :Sunset Corporate Campus,13810 Southeast Eastgate Way,47.5806355,-122.1564536
"Walgreens - Bellevue, WA #3662",647 140th Ave NE,47.6165569,-122.1537017
The Bravern,11111 NE 8th St,47.617103,-122.192456
BLOCK 16 FB BELLEVUE 21,1288 123rd Ave NE,47.62216,-122.176
AMZ SEA107-4,10450 NE 10th ST,47.619687,-122.200551
531631 - HQ Building 2 - P2,3655 131st Avenue Southeast,47.57865585,-122.1665252
Fred Meyer Bellevue #23,2041 148th Ave NE,47.6280692,-122.1438882
Ridgewood Corporate Square Building C,330 120th Ave NE,47.612834,-122.178704
Ridgewood Corporate Square Building F,150 120th Ave NE,47.611815,-122.178134
OBC STATION 1,411 108th Ave NE,47.614112,-122.196978
BLOCK 16 FB BELLEVUE 13,1288 123rd Ave NE,47.621743,-122.176008
UDR CHARGER 4,958 111th Ave NE,47.618696,-122.191787
BLOCK 16 FB BELLEVUE 6,1288 123rd Ave NE,47.621758,-122.175804
JLR BELLEVUE SHOP 01,13817 NE 20th St,47.627472,-122.155871
"Safeway #1600 (Bellevue, WA)",300 BELLEVUE WAYNE,47.61332,-122.20062
MICHAELSTOB MICHAELS'S TOYO,3080 150th Ave SE,47.582053,-122.14192
BLOCK 16 FB BELLEVUE 11,1288 123rd Ave NE,47.621671,-122.17589
BLOCK 16 FB BELLEVUE 7,1288 123rd Ave NE,47.621722,-122.175868
AMZ SEA107-5,10450 NE 10th St,47.619744,-122.200532
BELLEVUE SQUARE BELL SQ WEST #2,2088 Bellevue Square,47.616037,-122.205528
ONE88 SPACE 303 & 304,188 Bellevue Way NE,47.611826,-122.201331
AMZ SEA104-9,320 108th Ave NE,47.613391,-122.195782
AMZ SEA104-3,320 108th Ave NE,47.61339,-122.195793
BELLEVUE SQUARE BELL SQ NORTH 4,Bellevue Square - North Building104th Ave NE,47.61677,-122.203004
AMZ SEA104-5,320 108th Ave NE,47.613391,-122.195822
BLOCK 16 FB BELLEVUE 17,1288 123rd Ave NE,47.622158,-122.176042
BLOCK 16 FB BELLEVUE 15,1287 124th Ave NE,47.622172,-122.175417
AMZ SEA104-8,320 108th Ave NE,47.613392,-122.195765
AMZ SEA104-2,320 108th Ave NE,47.61339,-122.195775
AMZ SEA104-7,320 108th Ave NE,47.613391,-122.195743
AMZ SEA104-10,320 108th Ave NE,47.613389,-122.195787
LINC SQUARE EXP LSS P6 1,410 Bellevue Way NE,47.614098,-122.200748
AMZ SEA106-3,10550 NE 10th St,47.619784,-122.199758
AMZ SEA104-1,320 108th Ave NE,47.613391,-122.19581
LINC SQUARE EXP LSS P2 111-112,410 Bellevue Way NE,47.614394,-122.200531
AMZ SEA104-6,320 108th Ave NE,47.613392,-122.195727
AMZ SEA104-4,320 108th Ave NE,47.613392,-122.195757
AMZ SEA106-4,10550 NE 10th St,47.619791,-122.19971
KING COUNTY DES FACTORIA TRANSF,13800 SE 32nd St,47.582336,-122.158644
AMZ SEA107-3,10450 NE 10th St,47.619715,-122.200473
Whole Foods Bellevue (BLV),888 116th Ave NE,47.618675,-122.18436
BLOCK 16 FB BELLEVUE 8,1288 123rd Ave NE,47.621787,-122.175997
AMZ SEA107-1,10450 NE 10th St,47.619679,-122.200523
AMZ SEA107-2,10450 NE 10th St,47.61974,-122.20052
BELLEVUE SQUARE BELL SQ WEST #3,2086 Bellevue Square,47.615991,-122.205533
EASTGATE 15395 DUAL - #1,15395 SE 30th Pl,47.582147,-122.136648
UDR ASHTON BELL #1,10710 NE 10th St,47.619708,-122.197202
BLOCK 24 FB STATION 3,12355 NE District Wy,47.621188,-122.175998
AMZ SEA112 - 11,555 108th Ave NE,47.614641,-122.196451
UWMC UWMC #1,3100 Northup Way,47.638269,-122.191294
KGIP BELL SOUTH STATION 4,316 116th Ave NE,47.612706,-122.18514
AMZ SEA94 01,333 108th Ave NE,47.613372,-122.196721
UDR TEN20 #1,1020 108th Ave NE,47.61984,-122.19603
AMZ SEA94 04,333 108th Ave NE,47.613386,-122.196667
UDR ASHTON BELL #2,10710 NE 10th St,47.619772,-122.197194
AMZ SEA112 - 10,437 108th Ave NE,47.614572,-122.196469
AMZ SEA94 09,333 108th Ave NE,47.613343,-122.196839
The Marketplace at Factoria,3901 Factoria Blvd Mall SE,47.5758255,-122.1708235
BELLEVUE DOWNTOWN PARK 1,10201 NE 4th St,47.613224,-122.206542
AMZ SEA94 10,333 108th Ave NE,47.613372,-122.196796
AMZ SEA112 - 09,555 108th Ave NE,47.614618,-122.196459
PARKMETRO1 PARK METRO #1,11101 NE 12th St,47.620793,-122.192469
AMZ SEA112 - 08,555 108th Ave NE,47.614594,-122.196424
AMZ SEA112 - 12,555 108th Ave NE,47.614594,-122.196441
AMZ SEA112 - 16,555 108th Ave NE,47.614667,-122.196453
Stay Pineapple,155 108th Ave NE,47.61176,-122.19734
AMZ SEA94 11,333 108th Ave NE,47.61335,-122.196817
AMZ SEA112 - 03,555 108th Ave NE,47.614582,-122.196425
AMZ SEA112 - 04,555 108th Ave NE,47.614599,-122.196437
Bellevue College - Lot C7 Snoqualmie River Road,3036 Snoqualmie River Road,47.58495,-122.15043
AMZ SEA112 - 06,555 108th Ave NE,47.614601,-122.196441
AMZ SEA94 03,333 108th Ave NE,47.613343,-122.196699
AMZ SEA112 - 07,437 108th Ave NE,47.614558,-122.19646
AMZ SEA94 07,333 108th Ave NE,47.613343,-122.196753
AMZ SEA94 12,333 108th Ave NE,47.613357,-122.196624
KGIP BELL SOUTH STATION 2,316 116th Ave NE,47.612419,-122.184446
AMZ SEA94 08,333 108th Ave NE,47.613364,-122.196774
AMZ SEA112 - 15,555 108th Ave NE,47.614583,-122.196445
AMZ SEA94 13,333 108th Ave NE,47.613357,-122.196882
AMZ SEA94 06,333 108th Ave NE,47.613401,-122.19671
AMZ SEA112 - 14,555 108th Ave NE,47.61457,-122.19644
AMZ SEA112 - 13,555 108th Ave NE,47.614588,-122.19643
AMZ SEA94 02,333 108th Ave NE,47.613386,-122.19671
KGIP BELL SOUTH STATION 5,316 116th Ave NE,47.612704,-122.185139
AMZ SEA112 - 18,467 108th Ave NE,47.614743,-122.196447
AMZ SEA112 - 19,555 108th Ave NE,47.614747,-122.196461
UDR TEN20 #2,1020 108th Ave NE,47.619855,-122.195919
BELLEFIELD MADRONA 2,1300 114th Ave SE,47.599721,-122.187136
CCB CCB 2,500 108th Ave NE,47.614756,-122.195468
Ridgewood Corporate Square Building D,220 120th Ave NE,47.611815,-122.178134
Ridgewood Corporate Square Building G,11900 NE 1st Street,47.611519,-122.182197
BELLEVUE SBCC #1,14509 SE Newport Way,47.568834,-122.145328
KEY CENTER KEY CENTER 5,601 108th Ave NE,47.6161,-122.19692
KEY CENTER KEY CENTER 4,601 108th Ave NE,47.616143,-122.19689
KEY CENTER STATION 3,601 108th Ave NE,47.616057,-122.196775
KEY CENTER STATION 2,601 108th Ave NE,47.616072,-122.196829
KEY CENTER STATION 1,601 108th Ave NE,47.616101,-122.196893
KRC SKYLINE SKYLINE #2,10900 NE 4th St,47.614334,-122.19401
BELLEVUE BELLEVUE CH 1,450 110th Ave NE,47.614744,-122.193162
KRC SKYLINE SKYLINE #3,10900 NE 4th St,47.614305,-122.194097
LINC SQUARE EXP LSS P2 98-99,424 104th Ave NE,47.614345,-122.200772
KEY CENTER KEY CENTER 6,601 108th Ave NE,47.616104,-122.19696
KRC SKYLINE SKYLINE #1,10900 NE 4th St,47.61434,-122.194037
BELLEVUE SBCC #2,14509 SE Newport Way,47.568871,-122.145285
"BELLEVUECOLLEGE BC SSC,U BLDG3",3000 Landerholm Cir SE,47.584483,-122.148539
AMZ SEA94 05,333 108th Ave NE,47.613364,-122.196731
AMZ SEA112 - 21,555 108th Ave NE,47.614618,-122.196463
AMZ SEA112 - 20,437 108th Ave NE,47.614604,-122.19644
AMZ SEA112 - 22,437 108th Ave NE,47.614626,-122.196492
AMZ SEA112 - 30,555 108th Ave NE,47.614621,-122.196465
AMZ SEA112 - 29,555 108th Ave NE,47.61461,-122.196465
AMZ SEA112 - 28,437 108th Ave NE,47.614901,-122.196644
AMZ SEA112 - 02,437 108th Ave NE,47.614574,-122.196404
AMZ SEA112 - 27,437 108th Ave NE,47.614596,-122.196464
AMZ SEA112 - 25,437 108th Ave NE,47.614582,-122.196477
AMZ SEA112 - 24,555 108th Ave NE,47.614607,-122.196471
AMZ SEA112 - 23,437 108th Ave NE,47.614569,-122.19648
AMZ SEA112 - 17,555 108th Ave NE,47.614592,-122.196456
UDR CHARGER 1,958 111th Ave NE,47.61868,-122.191821
UDR CHARGER 3,958 111th Ave NE,47.618669,-122.191761
HAMPTON INN NORTH FRONT,11505 NE 2nd Pl,47.612051,-122.186391
AMZ SEA112 - 26,437 108th Ave NE,47.614571,-122.196442
AMZ SEA112 - 01,555 108th Ave NE,47.614578,-122.196429
AMZ SEA112 - 05,437 108th Ave NE,47.614579,-122.196417
BLOCK 16 FB BELLEVUE 5,1288 123rd Ave NE,47.621784,-122.175908
E_SOFI SOFI #1,13180 SE Newport Way,47.571386,-122.164808
BLOCK 16 FB BELLEVUE 12,1288 123rd Ave NE,47.621808,-122.176051
BLOCK 24 FB STATION 7,12355 NE District Way,47.620905,-122.175829
Bellevue Nissan,14762 SE Eastgate Way,47.580655,-122.143364
ONE88 SPACE 216 - 217,188 Bellevue Way NE,47.61186,-122.20131
BELLEVUE DOWNTOWN PARK 2,10201 NE 4th St,47.61309,-122.206569
BLOCK 24 FB STATION 6,12355 NE District Way,47.620982,-122.175927
ESSEX BELLCENTERE 01,10822 NE 2nd Pl,47.612468,-122.194308
BLOCK 24 FB STATION 5,12355 NE District Wy,47.621169,-122.175976
BELLEVUE X-ROADS PARK 1,999 164th Ave NE,47.618255,-122.122606
THE SUMMIT THE SUMMIT - P2,10885 NE 4th St,47.613367,-122.194775
HQ Building 5 - P2,3625 132nd Avenue Southeast,47.578682,-122.1652854
HQ Building 1 - P2,3617 131st Avenue Southeast,47.578473,-122.1664985
BLOCK 16 FB BELLEVUE 23,1288 123rd Ave NE,47.621657,-122.175954
AMZ SEA94 14,333 108th Ave NE,47.613415,-122.196955
BELLEVUE SQUARE BELL SQ NORTH 1,Bellevue Square - North Building104th Ave NE,47.616971,-122.203009
BELLEVUE PLACE BELL PLACE #1,575 Bellevue Way NE,47.618331,-122.201301
Tower 333,333 108th Avenue Northeast,47.6133892,-122.1970996
CAR CHARGER #1 SOMA DUAL 1,288 106th Ave NE,47.612754,-122.198497
NORAM STATION 01,1550 121st Ave NE,47.622622,-122.177263
NORAM STATION 02,1550 121st Ave NE,47.622527,-122.1773
BLOCK 16 FB BELLEVUE 4,1288 123rd Ave NE,47.62183,-122.175707
Bellevue College - Garage,3000 Landerholm Cir SE,47.585655,-122.147284
SRO SP1,3535 Factoria Blvd SE,47.578784,-122.171273
Highland Village Apartments,14526 NE 7th Place,47.616737,-122.146188
BLOCK 16 FB BELLEVUE 10,1288 123rd Ave NE,47.621748,-122.175959
BLOCK 16 FB BELLEVUE 20,1288 123rd Ave NE,47.622044,-122.175811
BLOCK 16 FB BELLEVUE 19,1288 123rd Ave NE,47.621685,-122.176008
LINCOLN SQUARE LS NORTH DUAL 1,110 Bellevue Way NE,47.616416,-122.201146
BLOCK 16 FB BELLEVUE 22,1288 123rd Ave NE,47.621826,-122.175977
EASTGATE 15325 DUAL,15325 SE 30th Pl,47.584289,-122.136777
BELLEVUE 110TH & 10TH,938 110th Ave NE,47.61903,-122.19342
BELLEVUE X-ROADS PARK 2,999 164th Ave NE,47.618278,-122.122649
KRC SKYLINE STATION #5,10900 NE 4th St,47.613973,-122.194071
KRC SKYLINE STATION #4,10900 NE 4th St,47.613972,-122.194125
LINCOLN SQUARE LS NORTH DUAL 2,110 Bellevue Way NE,47.616372,-122.201111
BELLEVUE SQUARE BELL SQ WEST 5,600 100th Ave NE,47.615923,-122.20553
431605 : Avalon Meydenbauer,10410 Northeast 2nd Street,47.6121794,-122.2009976
LINC SQUARE EXP P5 1,410 Bellevue Way NE,47.614098,-122.200729
KGIP BELL SOUTH STATION 3,316 116th Ave NE,47.613355,-122.185049
Venn@Main - Tesla Supercharger,10333 NE 1st Street,47.611048,-122.202181
KGIP BELL SOUTH STATION 1,376 116th Ave NE,47.612661,-122.185158
KGIP BELL SOUTH STATION 6,316 116th Ave NE,47.612677,-122.185136
"BELLEVUECOLLEGE BC SSC,U BLDG1",3000 Landerholm Cir SE Bellevue,47.584556,-122.148459
"BELLEVUECOLLEGE BC SSC,U BLDG2",3000 Landerholm Cir SE,47.584536,-122.148517
Overlake Medical Pavilion - Garage 5,1231 116th Ave NE,47.621194,-122.186139
ESSEX SAMMAMISH VIEW,16160 SE Eastgate Way,47.577051,-122.125164
929 Office Tower,929 108th Avenue NE,47.618317,-122.1969022
Venn at Main Apartments,10333 NE 1st St,47.6110064,-122.2021671
BELLEVUE SQUARE BELL SQ WEST #1,2088 Bellevue Square,47.616107,-122.205532
Sunset North,3100 139th Avenue Southeast,47.582405,-122.153989
BLOCK 24 FB STATION 1,12355 NE District Wy,47.621179,-122.176023
BLOCK 16 FB BELLEVUE 1,1288 123rd Ave NE,47.621942,-122.175942
BLOCK 16 FB BELLEVUE 14,1288 123rd Ave NE,47.621921,-122.176015
SRO SP2,3545 Factoria Blvd SE,47.578255,-122.17137
BLOCK 24 FB STATION 4,12355 NE District Wy,47.62118,-122.175985
BLOCK 16 FB BELLEVUE 18,1288 123rd Ave NE,47.62211,-122.175807
BLOCK 24 FB STATION 8,12355 NE District Way,47.621055,-122.175961
531630 - HQ Building 3 - P4,12920 Southeast 38th Street,47.57668091,-122.1670054
LINC SQUARE EXP LSE P2 #2,432-492 Bellevue Way NE,47.614294,-122.201255
BELLEFIELD MADRONA 1,1300 114th Ave SE,47.599757,-122.187281
Somerset Gardens Apartments,14700 Northeast 29th Place,47.636824,-122.144188
HQ Building 3 - P1,12920 Southeast 38th Street,47.5766937,-122.1671315
BLOCK 24 FB STATION 2,12355 NE District Wy,47.62119,-122.176009
HQ Building 1 - P1,3617 131st Avenue SE,47.57932701,-122.1663053
ATRIUM GARAGE ATRIUM GARAGE,110 110th Ave NE,47.611456,-122.193235
HQ Building 5 - P1,3625 132nd Avenue Southeast,47.57858476,-122.1657146
Plaza East,11100 Northeast 8th Street,47.6177789,-122.1915562
Western Washington University,516 High Street (MS9114),48.7391984,-122.4851568
SEHOME HS SEHOME HIGH #1,2700 Bill McDonald Pkwy,48.727512,-122.48124
"Fred Meyer 667 (Bellingham, WA)",1225 W Bakerview Rd,48.78928,-122.5123
Interdisc Science Lot 9G,516 High Street,48.73423,-122.48795
Chuckanut Builders,1000 N State St,48.745308,-122.481071
INTEGRAND TROVE,218 N Samish Way,48.738079,-122.469392
"Bellingham 1, LLP",4040 Northwest Avenue,48.7885917,-122.5060156
BARKLEY VILLAGE CORNERSTONE 1,Cornerstone Ln,48.772296,-122.443265
1217 STATE SATURNA 01,1217 N State St,48.747824,-122.478347
Bellingham International Airport,4255 Mitchell Way,48.795524,-122.531874
Whole Foods Bellingham,1030 Lakeway Dr,48.74393,-122.461854
Community Food CoOp,315 Weterly Rd,48.791491,-122.492374
GARAGE COMMERCIAL ST 1,1300 Commercial St,48.750815,-122.47958
GARAGE SOUTH LOT,1100 Railroad Ave,48.747287,-122.480701
Bellis Fair 11 DCFC,1 Bellis Fair Pkwy,48.78545,-122.488347
Haggen's Bellingham #3449,210 36th St,48.7330226,-122.4712397
Bellis Fair,1 Bellis Fair Pkwy,48.78505083,-122.488855883
GARAGE TAYLOR DOCK,900 10th St,48.72532,-122.505152
TOBELLINGHAM TOB 1,1100 Iowa St,48.754914,-122.459858
GARAGE FAIRHAVEN PARK,Chuckanut Dr at Fairhaven Park,48.713154,-122.499368
Hotel Bellwether - Tesla Destination,1 Bellwether Way,48.754197,-122.496675
GARAGE WEST MAGNOLIA,104 W Magnolia St,48.751046,-122.477956
GARAGE SHUKSAN MEADOWS,Maplewood Ave at Cottonwood Ave,48.777522,-122.503621
Lummi Bay Market 260,4839 Rural Ave,48.815705,-122.555513
GARAGE NEVADA 1,2200 Nevada St,48.759581,-122.459056
BEL-EV BEL-EV 1,4051 Meridian St,48.78815,-122.487681
GARAGE COMMERCIAL ST 2,1300 Commercial St,48.750857,-122.479518
SEHOME HS SEHOME HIGH #2,2700 Bill McDonald Pkwy,48.72757,-122.48128
Best Western Plus Heritage Inn - Tesla Destination,151 McLeod Rd,48.783141,-122.484001
Fairhaven Parkway,3105 Old Fairhaven Pkwy,48.715337,-122.477684
BARKLEY VILLAGE REGAL CINEMA 2,3011 Cinema Pl,48.7707,-122.448772
Oxford Suites Bellingham - Tesla Destination,4051 Meridian St,48.788325,-122.48746
Bellingham Nissan,1516 Iowa St,48.755607,-122.454132
Best Western Plus - Heritage Inn,151 E McLeod Rd,48.783478,-122.484131
Bellingham - Sehome Village,222 36th St,48.73115,-122.47117
Hamilton Cellars - Tesla Destination,55410 N Sunset Rd,46.2960713,-119.4514867
The Society Hotel,210 N Cedar St,45.714228,-121.461813
City of Bingen-Forth-Public,400 W Steuben Street,45.71609,-121.46967
Semiahmoo Resort,9565 Semiahmoo Pkwy,48.989751,-122.773271
Birch Bay Square - Tesla Supercharger,8115 Birch Bay Square,48.937845,-122.667679
Semiahmoo Resort & Spa - Tesla Destination,9565 Semiahmoo Pkwy,48.990486,-122.774447
BLAINE STATION 1,639-699 Peace Portal Dr,48.995255,-122.75184
Bonney Lake Village Center,21301 Hwy 410,47.166509,-122.145315
UWB CASCADIA CC TRULY HOUSE #1,18140 Campus Way NE,47.759501,-122.193075
Canyon Pointe,22309 30th Drive Southeast,47.796251,-122.1939756
Canyon Park Office Center,22232 17th Avenue Southeast,47.7953945,-122.2116571
Monte Villa,3830 Monte Villa Parkway,47.776781,-122.181535
UWB CASCADIA CC SOUTH LEVEL 3 W,South Parking GarageCampus Way NE,47.757838,-122.190947
Village at Beardslee Crossing - Tesla Supercharger,19128 112th Avenue NE,47.767687,-122.191482
UWB CASCADIA CC WEST LEVEL 2 N,18231 110th Ave NE,47.75969,-122.193886
18911 North Creek Parkway,18911 North Creek Parkway,47.7647852,-122.1845859
UWB CASCADIA CC WEST LEVEL 4 W,18231 110th Ave NE,47.759644,-122.1939
LuSBP,11804 North Creek Parkway South,47.7634842,-122.1813697
UWB CASCADIA CC WEST LEVEL 2E,18231 110th Ave NE,47.75966,-122.19387
UWB CASCADIA CC WEST LEVEL 1 W,18231 110th Ave NE,47.759647,-122.193886
UWB CASCADIA CC WEST LEVEL 3 E,18231 110th Ave NE,47.75966,-122.19386
Safeway 20711 Bothell Hwy,20711 Bothell Hwy,47.809974,-122.2060665
UWB CASCADIA CC WEST LEVEL 2 W,18231 110th Ave NE,47.75964,-122.19391
UWB CASCADIA CC SOUTH L 3 N,11237-11299 NE 180th St,47.757842,-122.190719
UWB CASCADIA CC WEST LEVEL 1 E,18231 110th Ave NE,47.759598,-122.193902
UWB CASCADIA CC NORTH LEVEL 3 S,18500 Campus Way NE,47.761846,-122.191872
UWB CASCADIA CC SOUTH LEVEL 4 S,Campus Way NE,47.757824,-122.190681
UWB CASCADIA CC SOUTH LEVEL 4 N,Campus Way NE,47.757748,-122.19073
"Fred Meyer 457 - Bothell, WA",21045 Bothell Everett Hwy.,47.80743,-122.20601
UWB CASCADIA CC SOUTH LEVEL 3 E,18140 Campus Way NE,47.75772,-122.190801
UWB CASCADIA CC NORTH LEVEL 3 N,18500 Campus Way NE,47.761878,-122.191915
(Public) Silver Lake Water and Sewer District HQ Chargers,15205 41st Ave SE,47.85919654,-122.1767124
Skagit Valley Casino,5984 Darrk Ln,48.559758,-122.347134
Kitsap Transit - Harborside Parking Garage,100 Washinton Ave,47.563883,-122.624526
"Walgreens - Bremerton, WA #5912",3333 Wheaton Way,47.5944743,-122.6294686
The Ambrose,4520 Bay Vista Boulevard,47.5652645,-122.6760895
Kitsap Transit - Wheaton Way Transit Center,3915 Wheaton Way,47.600278,-122.630556
Haselwood Chevrolet Buick GMC,501 W Hills Blvd,47.557801,-122.675335
Safeway 1401 N.e. Mcwilliams,1401 N.E. Mcwilliams,47.6207775,-122.630222
Camber Apartments,1231 NE McWilliams Rd,47.6205619,-122.6344971
Bremerton DCYF,4210 Wheaton Way Suite 101,47.602992,-122.627002
Advantage Nissan,5101 Auto Center Blvd,47.562162,-122.684286
HEARTLANDTOYOTA CT4020,901 W Hills Blvd,47.555928,-122.67698
Olympic College Bremerton,1600 Chester Ave,47.5732455,-122.6336963
Kitsap Transit Harborside Garage,60 Washington Ave,47.56358,-122.62531
City of Bridgeport - City Hall,1206 Columbia Ave,48.009356,-119.672953
KING COUNTY DES BURIEN P&R #6,14900 4th Ave SW,47.469241,-122.338631
Burien Nissan,16042 1st Ave S,47.458466,-122.333257
Fred Meyer WBN Burien #28,14300 1st Ave S,47.476251,-122.332159
"Walgreens at 14656 Ambaum Blvd, Burien",14656 Ambaum Blvd Sw,47.470554,-122.3466375
La Quinta Burlington,1670 S. Burlington Blvd,48.454081,-122.334149
Burlington - The Outlet Shoppes,448 Fashion Way,48.45625,-122.33954
DC BURLINGTON DC1,1920 Marketplace Dr,48.450226,-122.337127
DWAYNE LANE'S DEALERSHIP,620 Auto Blvd,48.451235,-122.343842
Comfort Suites Burlington Near I-5,500 E George Hopper Rd,48.451871,-122.329766
Burlington Crossings - Tesla Supercharger,1829 Marketplace Dr,48.451297,-122.339812
DC BURLINGTON DC2,1920 Marketplace Dr,48.450232,-122.337084
Fairfield Inn & Suites Burlington - Tesla Supercharger,9384 Old Highway 99 North,48.509743,-122.338681
FOOTHILLS TOY CT4K,1881 Bouslog Rd,48.449451,-122.346313
Windermere Camano Island - Tesla Destination,818 N Sunrise Blvd,48.240444,-122.4555
KIELO KIELO 2,5988 NW 38th Ave,45.606403,-122.471468
192nd West Lofts,2220 Southeast 192nd Avenue,45.6040109,-122.4757978
CM80 STATION 1,Pierce County Readiness Center,47.115829,-122.567993
Carson Ridge Luxury Cabins - Tesla Destination,1261 Wind River Rd,45.729538,-121.821066
Castle Rock - Cascade Select Market,204 W. Cowlitz Street,46.27622,-122.91012
Hotel Cathlamet - Tesla Destination,69 Main St,46.202588,-123.384133
Hotel Cathlamet Rear Parking Lot,69 Main Street,46.2025755,-123.3841695
TWIN TRANSIT MELLEN ST. 2,12 Airport Rd,46.711291,-122.976524
Providence - Centralia Hospital,914 S Scheuber Road,47.069827,-122.773312
Centralia - Wendy's,817 Harrison Avenue,46.72527,-122.97422
Centralia Outlets - Tesla Supercharger,1200 Lum Rd,46.729872,-122.977392
Home Depot - Tesla Supercharger,700 Northwest Arkansas Way,46.679769,-122.976995
Interstate Honda of Chehalis,1820 Northwest Louisiana Avenue,46.682265,-122.972792
Chehalis Commerce District,1701 NW Louisiana Ave,46.680072,-122.977218
City of Chelan,137 E Johnson Ave,47.840838,-120.018402
Campbell's Lake Chelan Resort,104 W Woodin Ave,47.8399,-120.0199
Fielding Hills Winery - Tesla Destination,565 S Lakeshore Dr,47.842476,-120.098099
Mellisoni Vineyard,3155 US 97A,47.83522282290976,-120.068983390213
CHAS Cheney Dental Clinic,1720 2nd St,47.4972856294039,-117.565699782953
Port of Clarkston,849 Port Way,46.425498,-117.04865
Port of Clarkston,757 Port Way,46.425404,-117.04866
Cle Elum,811 WA-970,47.188833,-120.903139
Suncadia Resort - Tesla Destination,3600 Suncadia Trl,47.207984,-121.019499
Cle Elum,3600 Suncadia Trail,47.2086,-121.0198
Cle Elum Business Park - Tesla Supercharger,811 WA-970,47.189262,-120.902714
Gravity Coffee - Tesla Supercharger,808 W Davis St,47.195255663717,-120.956107045492
City Hall,625 S College Ave,46.0427838,-118.3869759
BESTMED UC STATION 1,1225 SE Scenic View Dr,46.03764,-118.370917
BESTMED UC STATION 2,1225 SE Scenic View Dr,46.037685,-118.371025
City of Colville,202 N Main,48.545492,-117.905583
Rumley Insurance,519 S. Main St.,48.539715,-117.905363
Colville City Hall,158 E 1st Ave,48.543915,-117.904797
Town of Concrete - Park and Ride,7503 N Superior,48.537035,-121.758653
Connell,303 S Columbia Ave,46.659028,-118.861158
Seabrook Street Parking,169 Blackberry St,47.195359,-124.196082
Lakeside 24 Hour Fuel,16835 Lewis River Rd,46.051228,-122.301754
Banks Lake Brew and Bistro,695 N 2nd St,47.616684,-119.287843
COUPEVILLE COUPEVILLE #1,802 NW Alexander St,48.219574,-122.689582
COUPEVILLE COUPEVILLE #2,788 NW Alexander St,48.219576,-122.689657
Multicare Health Systems,17700 SE 272nd Street,47.359935,-122.103668
"Walgreens at 27130 172ND AVE SE, Covington",27130 172Nd Ave Se,47.358443,-122.1119915
"Walmart 5073 - Covington, WA",17432 SE 270th PL,47.36029,-122.10773
Covington Public,18631 SE 300th Pl,47.331977,-122.093326
I-5 Custer SB Rest Area,3063 Creasy Rd,48.92653,-122.64552
OLD SCHOOL PARK DARRINGTON 1GW,Mountain Loop Hwy & Alvord St,48.251621,-121.601383
Lincoln County Museum,600 7th St,47.652922,-118.150361
Dayton,120 N 1st St,46.320465,-117.98068
Weinhard Hotel,235 E Main St,46.320333,-117.980222
Blue Mountain Station - Tesla Destination,700 Artisan Wy,46.31017,-117.99763
Deer Park Chevron,1101 S Main,47.943721,-117.476902
The Four Points by Sheraton Seattle Airport South - Tesla Destination,22406 Pacific Highway S,47.400629,-122.296834
Highline Community College,2400 S 240th St,47.389529,-122.301609
Safeway 21401 Pacific Hwy So,21401 Pacific Hwy S,47.410095,-122.29889
Dupont Center - Ace Hardware,1585 McNeil St,47.092582,-122.644253
DuPont Grocery Inc.,100 Barksdale Avenue,47.093942,-122.6260623
SUTTON PLACE STATION 1,407 S Kansas Loop,47.397945,-120.263405
Town Nissan,555 3rd St SE,47.400783,-120.279071
SUTTON PLACE STATION 3,407 S. Kansas loop,47.398167,-120.26353
SUTTON PLACE STATION 2,407 S Kansas Loop,47.398136,-120.263596
Orcas Island Community Foundation,18 Urner St,48.69418,-122.90417
Orcas Island Market,469 Market St,48.69529,-122.90453
Orcas Island Airport,107 Schoen Ln,48.70455277599716,-122.9091449298859
Odd Fellows Hall,112 Haven Rd,48.692979,-122.904798
The Arbors at Edgewood,10304 20th St. East,47.238487,-122.294677
6th Ave #6,100 6th Avenue,47.8101038,-122.3735496
Main Street #5,Main & 6th Streets.,47.8105149,-122.3748742
Campbell-Nelson Nissan,24325 Highway 99,47.778229,-122.344838
PCC NATURAL PCC EDMONDS,9803 Edmonds Way,47.791134,-122.36613
City Park #1,600 3rd Avenue South,47.8051107,-122.3813841
Public Safety #3,205 5th Avenue North,47.8124532,-122.3758246
EDMONDSNISSAN CAMPBELL NORTH,"24325 Highway 99 Edmonds, WA. 98026",47.778256,-122.344832
Meadowdale Community Clubhouse,6801 North Meadowdale Road,47.84948206900219,-122.32542304477656
WinCo Foods - Edmonds #136,21900 Highway 99,47.800342,-122.33173
Sierra Park,19020 80th Avenue West,47.82656454887777,-122.34282967546146
City Hall #2,121 5th Avenue North,47.8113372,-122.37709
Public Safety #4,205 5th Avenue North,47.8124532,-122.3758246
Edmonds Public Works,7110 210th Street Southwest,47.808931332907136,-122.3293563375386
Yost Pool,9535 Bowdoin Way,47.80840769494938,-122.36008828525904
ESD ELBE L2,54106 Mountain Hwy,46.76501,-122.194239
ESD ELBE DCFC,54106 Mountain Hwy,46.765037,-122.194264
Holiday Inn Express - Tesla Supercharger,1620 Canyon Rd,46.976918,-120.54162
Holiday Inn Express - Ellensburg,1620 Canyon Rd,46.976691,-120.541869
Ginkgo Petrified Forest - Trees of Stone Trailhead,Vantage Hwy,46.97901,-120.25756
Taco Bell Ellensburg,1406 Canyon Road,46.9789,-120.54343
HORIZON REALTY VERGE APTS 1,2420 Airport Rd,47.019158,-120.537756
Reds Fly Shop,14706 State Route 821,46.843149,-120.462157
SureStay Hotel by Best Western - Tesla Supercharger,1500  Canyon Road,46.977979,-120.542576
Ellensburg,269-299 N Main St,46.994236,-120.549197
Whitneys Value Ford,6 Schouweiler Tract Rd W,46.997349,-123.446815
Shell Gas Station/BJ's - Tesla Supercharger,14579 US-97 Alt,47.684802,-120.206922
Safeway 152 Roosevelt Ave E,152 Roosevelt Ave E,47.19854,-121.979695
Crystal Mountain,33914 Crystal Mt. Blvd,46.938306,-121.472889
Confluence Health | Ephrata Clinic,314 Basin St SW,47.31711,-119.553158
SNOPUD POWERED MUEVE3105 #1,2320 California St,47.980407,-122.197643
SNOPUD POWERED MUEVE3105 #2,2320 California St,47.980493,-122.197684
Helm Apartments,128 127th Street SE,47.8827679,-122.2283258
Kia of Everett,229 SW Everett Mall Way,47.906308,-122.237601
Chevrolet of Everett,7301 Evergreen Way,47.931316,-122.219758
Hotel lndigo Everett,1028 13th Street,48.0000028,-122.2146431
"Walmart 5195 - Everett, WA",11400 Hwy. 99,47.8935,-122.256
Broadway Apartments - 1st Floor,3214 Broadway,47.9749,-122.2014
"Walgreens - Everett, WA #4730",13110 Bothell Everett Hwy,47.8789325,-122.2071316
Target - Tesla Supercharger,405 SE Everett Mall Way,47.909318,-122.225827
TARGET CORP EVERETT 2,405 SE Everett Mall Way,47.91042,-122.22728
HOPEWORKS HOPEWORKS 3,3315 Broadway,47.973294,-122.201177
NISSAN-EVERETT DC STATION 1,10500 Hwy 99,47.902712,-122.246862
NISSAN-EVERETT DC STATION 2,10500 Evergreen Way,47.902753,-122.246867
EVERETT YMCA EVERETT YMCA #1,4730 Colby Ave,47.954679,-122.208344
Broadway Apartments - 2nd Floor,3214 Broadway,47.9752,-122.2018
TARGET CORP EVERETT 1,405 SE Everett Mall Way,47.910443,-122.22728
"Walmart 3053 - Everett, WA",1605 SE Everett Mall Way,47.91349,-122.21331
EVERETT YMCA EVERETT YMCA #3,4730 Colby Ave,47.954737,-122.208024
Providence Regional Medical Center Everett,1717 13th Street,48.00101,-122.2061313
HOPEWORKS HOPEWORKS 1,3315 Broadway,47.97331,-122.201162
Everett Community College - Lot F,2000 Tower St Lot F,47.9990269,-122.1914014
HOPEWORKS HOPEWORKS 2,3331 Broadway,47.972937,-122.200839
Safeway 11031 19th Ave SE,11031 19th Ave SE,47.8973,-122.205635
EVERETT YMCA EVERETT YMCA #4,4730 Colby Ave,47.955032,-122.207117
Paine Field Airport - Tesla Destination,3220 100th St SW,47.9074843,-122.2620127
TAO FAWU FARM STATION 1,3825 Cabrant Rd,48.89416,-122.281001
Valet Parking,6501 Railroad Avenue SE,47.542153,-121.836634
"Walmart 3794 - Federal Way, WA",34520 16TH AVE S,47.29149,-122.30889
Celebration Center - Tesla Supercharger,32015 Pacific Highway South,47.314888,-122.31487
LAKEHAVEN W&S 2,31627 1st Ave S,47.318292,-122.335526
LAKEHAVEN W&S 1,31627 1st Ave S,47.318336,-122.33558
Best Western Plus Evergreen Inn & Suites - Tesla Destination,32124 25th Ave S,47.313799,-122.301009
Best Western Plus - Evergreen Inn and Suites,32124 25th Ave S,47.313989,-122.300707
"Walgreens at 28817 Military Rd, Federal Way",28817 Military Rd,47.343188,-122.302009
"Walgreens at 34008 Hoyt Rd, Federal Way",34008 Hoyt Rd Sw,47.2971285,-122.381656
The Commons at Federal Way,1701 South 320th Street,47.3139055,-122.312283
DESTINATION DCFAST HOG,2302 Pacific Hwy E,47.24293,-122.39677
Port Landing at Fife Apartments,2715 62nd Ave E,47.2334631,-122.3455343
BJ\'s Bingo & Gaming,4411 Pacific Hwy East,47.2439401,-122.3698252
Forks Community Hospital,390 Founders Way,47.946567294707,-124.39440425424
Dew Drop Inn - Tesla Supercharger,100 Fern Hill Road,47.942921,-124.385236
Kalaloch Lodge,157151 Hwy 101,47.6055171,-124.3715566
Quillayute River Resort - Tesla Destination,473 Mora Rd,47.914774,-124.544249
Hoh Valley Cabins,5843 Upper Hoh Rd,47.8176852900045,-124.151851571593
Quillayute River Resort,473 Mora Rd,47.9148059463057,-124.544494766543
Island Athletic Club - Tesla Destination,5511 S Freeland Ave,48.010539,-122.534798
Friday Harbor Airport,800 Franklin Rd,48.524715,-123.026405
Snug Harbor Resort,1997 Mitchell Bay Rd,48.569915,-123.168265
Key Bank,95 2nd St,48.53475594577669,-123.0185331190491
San Juan Islands Conservation District,530 Guard St,48.536489,-123.021351
Avalon Business Park,322 Daniel Ln,48.514655,-123.028884
Friday Harbor Grand Bed and Breakfast,345 Blair Ave,48.532844,-123.021001
Earthbox Inn and Spa,410 Spring St,48.532963,-123.019311
PUBLIC WORKS 1 GH FINHOLM 1,8828-8844 N Harborview Dr,47.339342,-122.590314
MP4 MP4,3220 Rosedale St NW,47.329972,-122.582577
Best Western Wesley Inn - Tesla Destination,6575 Kimball Dr,47.3183909,-122.5853265
Best Western - Wesley Inn & Suites,6575 Kimball Dr,47.318046,-122.584772
Ocean5 - Tesla Destination,5268 Point Fosdick Dr NW,47.305772,-122.579191
PUBLIC WORKS 1 MARITIME PIER,3025 Harborview Dr,47.329291,-122.578979
"Kroger Fred Meyer 691 (Gig Harbor, WA)",5502 Point Fosdick Drive NW,47.3067,-122.58017
KCPW STATION 2,115 W Court St,45.821535,-120.822781
KCPW STATION 1,115 W Court St,45.821511,-120.823346
Grandview,115 W. Wine Country Rd,46.2563,-119.90306
Granite Falls City Hall,215 S Granite Ave,48.0812599680094,-121.968687709625
Granite Falls Police Station,205 S Granite Ave,48.081697184675,-121.96881709403
Shoalwater Bay Casino,4112 State Route 105,46.7250165,-124.0206708
Anthology Apartments,1610 Anthology Ave NW,47.5511184,-122.0722164
Costco HQ Garage,999 Lake Drive,47.548675,-122.050648
"Target T0996 - Issaquah, WA",755 NW Gillman Blvd.,47.54187,-122.05203
KING COUNTY DES ISSAQUAH P&R 6,1755 Highlands Dr NE,47.545719,-122.015713
KING COUNTY DES ISSAQUAH P&R 5,1755 Highlands Dr NE,47.545785,-122.018499
ISSAQUAH COI ZHOMESA,1707 9th Pl NE,47.544561,-122.017533
RPI PORTEMONS 2005 POPLAR 2,2005 NW Poplar Way,47.550487,-122.068649
ISSAQUAH COI COMMCENTER,301 Rainier Blvd S,47.527279,-122.033704
ESTATES AT COUG OFFICE1,2137 NW Shy Bear Way,47.530096,-122.070319
Timber Ridge At Talus,100 Timber Ridge Way NW,47.53129,-122.06573
Swedish Medical Center Issaquah Campus,751 N.E. Blakely Drive,47.536237,-122.0220539
KING COUNTY DES ISSAQUAH P&R 3,1755 Highlands Dr NE,47.545787,-122.018479
ISSAQUAH COI ZHOMESB,1707 9th Pl NE,47.544619,-122.017533
KING COUNTY DES ISSAQUAH P&R 4,1755 Highlands Dr NE,47.54578,-122.018474
Holiday Inn Seattle-Issaquah - Tesla Destination,1801 12th Ave NW,47.550984,-122.057823
Snoqualmie Casino,37500 SE N Bend,47.519113,-121.841787
HOMEWOOD SUITES HOMEWOOD #1,1484 Hyla Ave NW,47.547088,-122.065336
HILTON GARDEN STATION 1,1800 NW Gilman Blvd,47.546017,-122.06528
RSS-1 RSS #1,485 Rainier Blvd N,47.534915,-122.037552
Costco HQ Garage #1439,755 Lake Drive,47.5461081,-122.049337
ISD411 ADMIN CENTER 1,5150 220th Ave SE,47.55493,-122.047455
KING COUNTY DES ISSAQUAH P&R 7,1755 Highlands Dr NE,47.545783,-122.018483
RPI PORTEMONS 2005 POPLAR 1,2005 NW Poplar Way,47.55054,-122.068955
RPI PORTEMONS 2005 POPLAR 3,2005 NW Poplar Way,47.550508,-122.068641
KING COUNTY DES ISSAQUAH P&R 1,1755 Highlands Dr NE,47.545335,-122.019501
ESTATES AT COUG OFFICE 2,2137 NW Shy Bear Way,47.530138,-122.070337
KING COUNTY DES ISSAQUAH P&R 2,1755 Highlands Dr NE,47.545324,-122.0195
ISD411 ADMIN CENTER 2,5150 220th Ave SE,47.554889,-122.047456
Grand Ridge Plaza Regal Theater,1451 Highlands Dr Ne,47.543796,-122.017239
ESSEX HIGHLANDS,1460 NE Hawthorne Street,47.545075,-122.008911
Discovery West Apartments,"580 8th Ave., NE",47.5365604,-122.0205442
Fred Meyer - Tesla Supercharger,6100 East Lake Sammamish Parkway SE,47.548081,-122.039955
ESTATES AT COUG 2153,2196 NW Shy Bear Way,47.531503,-122.072654
EZstop Kalama Waterfront,215 N Hendrickson Dr,46.0039829278164,-122.845311463165
Three Rivers Mall,351 Three Rivers Dr.,46.13988,-122.90126
Panera Bread - Tesla Supercharger,207 Three Rivers Drive,46.143261,-122.898533
Safeway 6850 NE Bothell Way,6850 NE Bothell Way,47.758855,-122.2474
The Hanger - Kenmore,6704 NE 181st Street,47.759665,-122.250898
Ridgeline Dr - Kennewick WA,10799 Ridgeline Dr.,46.195469,-119.265621
Kennewick,2901 Southridge Blvd,46.180363,-119.188501
19th Ave Apts,1917 West 19th Avenue,46.191192929631406,-119.14626421984232
SureStay Plus Hotel,602 N Young St,46.2159449742615,-119.218547768196
Badger Mountain Vineyard & Powers Winery - Tesla Destination,1106 N Jurupa St,46.213187,-119.286497
Fred Meyer - Tesla Supercharger,2811 West 10th Ave.,46.198035,-119.162687
ADMIN BUILDING PUBLIC PARKING,7220 W Okanogan Pl,46.220623,-119.219539
Vista Field - Deschutes Avenue,606 N Crosswind Boulevard,46.216773190847,-119.21101917564
Hampton Inn Kennewick at Southridge - Tesla Destination,3715 Plaza Wy,46.178019,-119.189427
Leskovar Mitsubishi,3020 W Clearwater Ave,46.213233,-119.162367
Cascade Homes,20500 106 Ave SE,47.418452,-122.199528
Valli Kee,23401 104TH AVE SE,47.392052,-122.202541
Safeway 20830 108th SE,20830 108th SE,47.41504,-122.19608
IBEW LOCAL 46 IBEW LOCAL 46 1,19802 62nd Ave S,47.424222,-122.256619
Multicare Health Systems - Kent,222 State Ave N,47.382882,-122.229116
"BOA 5-119 Kent, WA","311 4th. Ave. N. Kent, Washington 98032",47.3833,-122.23618
Bowen Scarff Ford,1157 Central Avenue North,47.39555066865192,-122.22888831829938
IBEW Local 46,19802 62nd Ave S,47.424157,-122.256343
Kent,24437 Russell Road,47.381517,-122.26211
Birch Creek Apartments,27360 129th Place SE,47.356001,-122.16869
Pacific Raceways,31001 144th Ave SE,47.320954,-122.13822
Albertsons 8196 SR 104,8196 SR 104,47.811105,-122.540695
Kitsap Transit-Georgeâ€™s Corner Park & Ride,27618 Hansville Rd. NE,47.812524,-122.540217
"The Point Casino Hotel, Kingston WA",7989 NE Salish Ln,47.8444,-122.54224225
ASPECT ASPCT AT TOTEM,12540 120th Ave NE,47.712309,-122.179514
KIRKLAND MARINA DUAL 2,52 Kirkland Ave,47.675556,-122.207383
MSSL MSKL 1,11729 Northeast 118th Street,47.705595,-122.185672
Lifebridge-Uplund Kirkland -  East Building,11725 NE 117th Ct,47.70642159,-122.18424008
KIRKLAND LIBRARY DUAL 2,308 Kirkland Ave,47.676045,-122.203117
Lake Washington Institute of Technology,11605 132nd Ave NE,47.704069,-122.167006
"QFC 828 (Kirkland, WA)",11224 NE 124th St,47.71142,-122.19086
KING COUNTY DES SK P&R 1,10610 NE 38th PL,47.643584,-122.195913
KING COUNTY DES SK P&R 4,10610 NE 38th PL,47.643471,-122.196569
The 101,11 Main Street South,47.6753316,-122.2057967
Safeway 12519 NE 85th St,12519 Ne 85Th St,47.678688,-122.174022
KING COUNTY DES SK P&R 5,10610 NE 38th PL,47.643474,-122.196571
"Walgreens - Kirkland, WA #4156",12405 NE 85th St,47.67881,-122.17536
KING COUNTY DES SK P&R 2,10610 NE 38th PL,47.643579,-122.195911
KING COUNTY DES SK P&R 3,10610 NE 38th PL,47.643585,-122.195909
Volkswagen of Kirkland,12612 NE 124th St,47.7108371216806,-122.17214269969
KIRKLAND LIBRARY SOUTH 1,308 Kirkland Ave,47.675896,-122.203012
BOARDWALK APTS STATION 6,134 Parkplace Center,47.676223,-122.19942
KIRKLAND MARINA PARK 1,9 Lakeshore Plaza,47.675365,-122.2075
MAIN HOSPITAL SILVER PARKING,11300-11398 128th Ave NE,47.716056,-122.179455
MAIN HOSPITAL BLUE PARKING,12040 NE 128th St,47.714793,-122.176869
King County Housing Authority - Juanita Court,9926 NE 126th St,47.7133,-122.209
P-5000 Garage at Carillon Point,5000 Carillon Point,47.655327,-122.205254
Lee Johnson Nissan,11930 124th Ave NE,47.707366,-122.173913
Lee Johnson Nissan of Kirkland,11930 124th Ave NE,47.707294,-122.174855
P-4000 Garage at Carillon Point,4000 Carillon Point,47.655327,-122.205254
P-2000 Garage at Carillon Point,2000 Carillon Point,47.65753,-122.206519
BOARDWALK APTS STATION 8,134 Parkplace Center,47.676179,-122.199363
P-3000 Garage at Carillon Point,3000 Carillon Point,47.65753,-122.206519
Lifebridge-Uplund Kirkland - West Building,11725 NE 117th Ct,47.705801,-122.234482
MSSL MSKL 2,11729 Northeast 118th Street,47.705587,-122.185308
MAIN HOSPITAL DEYOUNG1,12039 NE 128th St,47.714435,-122.179399
KIRKLAND CITY HALL 1,123 5th Ave,47.678476,-122.206806
MAIN HOSPITAL SILVER #2,12001-12099 NE 130th Ln,47.716066,-122.179613
Seaview Buick GMC,17909 HWY 99,47.836466,-122.300435
WASHINGTON ST LACONNER #1,100 Washington Ave,48.391109,-122.496837
LAC SWIN LIBRAR LACSWIN LIBRARY,520 Morris St,48.391957,-122.490724
DEPT OF ECOLOGY HQ 3,300 Desmond Dr SE,47.047742,-122.806456
TARGET CORP LACEY 1,641 Sleater Kinney Rd SE,47.042259,-122.834239
TARGET CORP LACEY 2,641 Sleater Kinney Rd SE,47.042275,-122.83436
City of Lacey - City Hall Parking,420 College St,47.044011,-122.822404
Martingale Apartments,8675 Litt Drive SE,47.0560184,-122.7551371
WADOC LACEY FO 1R,6135 Martin Way E,47.048853,-122.800171
Cornerstone,4501 Intelco Loop SE,47.0001351,-122.8280101
Little Prairie Center,4700 SE Yelm Highway,46.997451997,-122.822238546
"Walgreens - Lacey, WA #6917",8333 Martin Way East,47.056479,-122.762767
WADOC LACEY FO 2L,6135 Martin Way E,47.048809,-122.800075
WSSDA 225 COLLEGE NE,225 College St NE,47.050128,-122.823353
Imber at Union Mills,8519 Oya Ln SE,47.036381224724856,-122.75812260076324
WADOC LACEY FO 2R,6135 Martin Way E,47.048823,-122.800086
Lacey,676 Woodland Square Loop SE,47.042017,-122.825899
Target - Tesla Supercharger,665 Sleater Kinney Road SE,47.042158,-122.833946
"MCREF III Lacey Apartments, LLC",5333 15th Avenue Northeast,47.055925,-122.811905
DEPT OF ECOLOGY HQ 8,300 Desmond Dr SE,47.04741,-122.80642
"Walmart 3531 - Lacey, WA",1401 Galaxy Dr. NE,47.05966,-122.77201
DEPT OF ECOLOGY HQ 6,300 Desmond Dr SE,47.047593,-122.806449
DEPT OF ECOLOGY HQ 7,300 Desmond Dr SE,47.047474,-122.806465
WADOC LACEY FO 1L,6135 Martin Way E,47.048853,-122.800032
"Kroger QFC 126 (Lacey, WA)",4775 Whitman Lane SE,46.99476,-122.82386
"Target T1331 - Lake Stevens, WA",9601 Market Place,47.99823,-122.10064
NORTH COVE PARK STATION 1,1812 Main St,48.014624,-122.065442
"Walgreens - Lakewood, WA #3514",9505 Bridgeport Way SW,47.171582,-122.517619
LAKEVIEW L&P 1 LLP 1,11509 Bridgeport Way SW,47.153199,-122.504023
DOL STATION B,6010 Main St SW,47.161377,-122.517325
DOL STATION A,6010 Main St SW,47.161364,-122.517389
Western State Hospital,9601 Steilacoom Blvd,47.177257,-122.564307
Chambers Creek Shopping Centers,8611 Steilacoom Boulevard Southwest,47.180071,-122.552103
The Inn at Langley - Tesla Destination,400 1st St.,48.041105,-122.410772
Langley Park,305 Second Street,48.039928,-122.409736
Saratoga Inn - Tesla Destination,201 Cascade Ave,48.0396068,-122.4061314
Hampton Inn & Suites - Leavenworth,301 Ward Strasse,47.595939,-120.64403
Wilkommen Park & Ride,116 River Bend Dr,47.597602,-120.644466
Obertal Inn,922 Commercial St,47.595741,-120.659917
Icicle Village Resort,505 Highway 2,47.588981,-120.67331
Icicle Village Resort - Tesla Destination,505 Hwy 2,47.589123,-120.672887
Sleeping Lady Mountain Resort - Tesla Destination,7375 Icicle Rd,47.551769,-120.680327
"Albertsons Safeway 1589 (Leavenworth, WA)",116 River Bend DR,47.59736,-120.64588
Dan's Food Market - Tesla Supercharger,1329 US-2,47.598476,-120.656055
Leavenworth Fish Hatchery,12790 Fish Hatchery Rd,47.558592,-120.675803
Leavenworth - City Hall,700 US Hwy 2,47.59519,-120.66404
59er Diner,15361 US 2,47.758434,-120.742416
Mountain Springs Lodge - Tesla Destination,19115 Chiwawa Loop Rd,47.767473,-120.653187
BIG TROUT LODGE CHARGER2,22809 E Country Vista Dr,47.669151,-117.098583
CITY OF LIBERTY LAKE,22710 E Country Vista Dr,47.671569,-117.102884
Trailhead Golf Course,22302 E. Country Vista Dr.,47.667327,-117.106385
BIG TROUT LODGE CHARGER4,22809 E Country Vista Dr,47.669173,-117.098508
BIG TROUT LODGE CHARGER3,22809 E Country Vista Dr,47.668993,-117.098183
BIG TROUT LODGE CHARGER1,22809 E Country Vista Dr,47.669187,-117.098583
Liberty Lake Park and Ride L2,E. Mission Ave,47.670514,-117.103246
MB OF SPOKANE OUTSIDE 1,21802 E George Gee Ave,47.67109,-117.112915
"Liberty Lake, WA - Tesla Supercharger",21728 E Mission Ave,47.67381,-117.1130101
Adrift Hotel,409 Sid Snyder Dr.,46.3455914,-124.060608
LONG BEACH STATION 1,406 Oregon Ave S,46.349067,-124.053026
LCC LCC H&S #1,1810 Maple Street,46.141922,-122.940192
Cowlitz PUD Main Office,961 12th avenue,46.1315296,-122.9358643
PORT OFFICE ADMINREARSOUTH,10 International Way,46.107135,-122.941812
Lopez Community Land Trust,25 Tuatara Rd,48.530774,-122.914874
Lopez Island Library,2225 Fisherman Bay Rd,48.521863,-122.909571
Southend General Store and Restaurant,3024 Mud Bay Rd,48.44512,-122.86036
Lopez Village Market,162 Weeks Rd,48.52618264160765,-122.91266536441802
Porch Swing Properties,610 Front St,48.942575,-122.455243
Bartell Drugs - Tesla Supercharger,3625 148th St SW,47.864533,-122.28197
Safeway 14826 Highway 99,14826 Highway 99,47.863705,-122.283875
"531632: MR Creekside, LLC",20311 52nd Avenue West,47.8142359,-122.3016909
HUDSON NRTHVIEW STATION 1,20816 44th Ave W,47.8107,-122.295343
HUDSON NRTHVIEW STATION 4,20800 44th Ave W,47.810125,-122.294145
HUDSON NRTHVIEW STATION 3,20800 44th Ave W,47.81013,-122.294248
Alderwood Mall Jamba Juice DCFC,3000 184Th St Sw,47.828184,-122.275288
HUDSON NRTHVIEW STATION 2,20800 44th Ave W,47.810176,-122.294266
Alderwood Mall PF Chang's,3000 184Th St Sw,47.83112125,-122.27003975
Alderwood Mall Macy's,3000 184Th St Sw,47.828949,-122.2711475
Homewood Suites by Hilton - Lynnwood Seattle Everett,18123 Alderwood Mall Pkwy,47.833778,-122.268338
Lynnwood Convention Center,3711 196Th St Sw,47.8219955,-122.2839105
SANDBERG VOLVO STATION 2,17025 Hwy 99,47.843755,-122.294874
"Target T0338 - Lynnwood, WA",18305 Alderwood Mall Pkwy,47.83199,-122.26733
Alderwood Mall JC Penny Parking Garage DCFC,3000 184Th St Sw,47.830769108,-122.27515344
Whole Foods Lynnwood,2808 196th St SW,47.820256,-122.271361
Alderwood Mall Nordstrom,3000 184Th St Sw,47.831167333,-122.275226667
Alderwood Mall JC Penny Parking Garage 2nd Floor,3000 184Th St Sw,47.830787,-122.275145
"Walgreens - Lynnwood, WA #6302",16423 Larch Way,47.848697,-122.246153
Kohl's Lynnwood,18405 Alderwood Mall Pkwy,47.8312655,-122.266719
ALLEGRO 2019 ASH CREEK,16605 Ash Way,47.847481,-122.261384
HUDSON NRTHVIEW STATION 5,20800 44th Ave W,47.810153,-122.294123
Fred Meyer - Tesla Supercharger,2902 164th Street SW,47.846714,-122.271389
SANDBERG VOLVO STATION 1,17025 Hwy 99,47.844271,-122.29492
Lynnwood Apartments,4200 Alderwood Mall Blvd,47.816836,-122.290084
Alta Cellars - Tesla Destination,135 Wapato Wy,47.884887,-120.156959
Hard Row to Hoe Vineyards - Tesla Destination,300 Ivan Morse Rd,47.896557,-120.132386
Mountain View Lodge & Resort,25 Wapato Way,47.883847,-120.154608
NE STATION NW STATION,6221 31st Ave NE,48.052641,-122.189422
NE STATION NE STATION,6221 31st Ave NE,48.052498,-122.189401
DC CORRIDOR TARGET MV DC2,16822 Twin Lakes Ave,48.149754,-122.190449
KOHL'S - CHPT 1017 MARYSVILLE,3713 116th St NE,48.1017,-122.181315
LQ Maryville,11430 38th Drive Northeast,48.09885,-122.17922
MCC CHARGERS CPE250-1,1404 5th St,48.052642,-122.178325
DC CORRIDOR TARGET MV DC1,16822 Twin Lakes Ave,48.149743,-122.190468
Mazama Country Inn,15 Country Rd,48.594482,-120.406494
Mead Chevron,3812 E Highland Rd,47.786952,-117.353857
Sunwest Automotive Engine Inc,210 S Broad St,47.571612,-117.681838
"Walgreens - Mercer Island, WA #3733",7707 SE 27th St,47.5866676,-122.2340887
UDR ISLAND SQ APT 2,2758 78th Ave se,47.585809,-122.233237
MERCER ISLAND MI COMMUN CTR,8236 SE 24th MI Community Center,47.590057,-122.228541
ALJOYA 1 EV CHARGER,2430 76th Ave SE,47.588122,-122.237206
MERCER ISLAND CITY HALL #1,9611 SE 36th St City Hall,47.577257,-122.209818
UDR ISLAND SQ APT 1,2758 78th Ave se,47.585782,-122.233277
MERCER ISLAND CITY HALL #2,9611 SE 36th St City Hall,47.577174,-122.209822
MERCER ISLAND CITY HALL #3,9611 SE 36th St City Hall,47.577105,-122.209831
MI SCHOOLS NORTHWOOD #1,4030 86th Ave SE,47.573641,-122.223648
Metaline Falls Visitor Center,225 East 5th Avenue,48.862062,-117.369619
"Amazon Go, Mill Creek WA","13209 39th Avenue SE, Suite A2",47.877436435,-122.179395431
Gull Wing Inn,4852 Pacific Ave,47.24044,-124.216904
Moonstone Beach Motel - Tesla Destination,4849 Pacific Ave,47.240392,-124.217215
Safeway 19651 Hwy 2,19651 U.S. 2,47.859687,-121.967706
"Walmart 5628 - Monroe, WA",19191 N Kelsey Street,47.86516,-121.97318
Snohomish County - Evergreen Fairgrounds,14405 179th Ave SE,47.868914,-121.987449
Fred Meyer - Tesla Supercharger,18805 US-2,47.862572,-121.976585
ESD MORTON DCFC,521 Adams Ave,46.555512,-122.280013
ESD MORTON L2,521 Adams Ave,46.555513,-122.28006
Fairfield Inn & Suites by Marriott Moses Lake - Tesla Destination,2380 S Maiers Rd,47.10335,-119.251036
Lep Re Kon Harvest Foods - Tesla Supercharger,2709 West Broadway Avenue,47.103514,-119.310208
EN Moses Lake,312 W Third Ave.,47.12852,-119.281584
ESD MOSSYROCK L2,748 Williams St,46.533843,-122.484954
Adytum Sanctuary - Tesla Destination,186 Skyview Dr,46.545331,-122.508967
ESD MOSSYROCK DCFC,748 Williams St,46.533843,-122.484997
"Walmart 2596 - Mount Vernon, WA",2301 Freeway Dr.,48.44174,-122.34476
SKAGIT STATION SS1,105 E Kincaid St,48.418198,-122.334391
SKAGIT COUNTY ADMIN STATION 2,1800 Continental Pl,48.437569,-122.325494
SKAGITYMCA THREE,1901 Hoag Rd,48.443125,-122.316511
SKAGITYMCA TWO,1901 Hoag Rd,48.44309,-122.316904
Mount Vernon Plaza,315 East College Way,48.437167,-122.3369445
SKAGITYMCA ONE,1901 Hoag Rd,48.443205,-122.316279
SKAGIT STATION SS2,105 E Kincaid St,48.417923,-122.334809
Albertsons 4301 212th Street SW,4301 212th Street SW,47.80738,-122.290565
MTE EDMONDS SCHOOL,21975 52nd Ave W,47.798901,-122.3025
MOUNTLAKE EVCS STATION1,23204 58th Ave W,47.787897,-122.311661
MOUNTLAKE EVCS STATION2,23204 58th Ave W,47.787867,-122.31192
Skagit Valley College,1800 N Laventure Rd,48.436733,-122.312699
Burgermaster,2030 Freeway Dr,48.439781,-122.341794
Skagit Valley College - Lewis Hall,2405 E. College Way,48.436844,-122.312753
IBEW Local 191,306 Anderson Rd,48.3990120273125,-122.333582969284
Skagit Valley College - Annex,2405 E. College Way,48.436423,-122.3088327
Light House Park,609 Front Street,47.9487555,-122.3062009
"Walgreens at 10200 Mukilteo Speedway, Mukilteo",10200 Mukilteo Speedway,47.905435,-122.2937315
HARBOUR POINT HBP STATION A,11700 Mukilteo Speedway,47.890423,-122.286971
Naches,8894 US-12,46.71653,-120.677423
ESD WHITEPASS L2,48850 US-12,46.639615,-121.390658
Hobuck Beach  Resort - Tesla Destination,2726 Makah Passage,48.340723,-124.662924
Hobuck Beach Resort  RV Camping - Tesla Destination,3346 Makah Passage,48.3334791,-124.6593683
Hobuck Beach Resorts South,2726 Makah Passage,48.3331786074504,-124.660029250436
431604 : Avalon Newcastle Commons,13398 Newcastle Commons Drive,47.5437808,-122.1613321
Pend Oreille PUD,130 North Washington Avenue,48.1817654,-117.043496
TA Petro - Tesla Supercharger,46600 SE North Bend Way,47.468033,-121.716442
Sno Falls - Credit Union,PO Box 2510,47.4956579,-121.7867775
North Bend Premium Outlets,461 S. Fork Avenue,47.49129,-121.79356
North Bend Premium Outlets,461 S Fork Ave SW,47.49132,-121.79308
Safeway 1450 SW Erie St,1450 SW Erie St,48.286317,-122.6620275
Ocean Shores Visitor Center - Tesla Supercharger,120 W Chance a La Mer NW,47.0080700982166,-124.16514134488
QBRC QBRC 2,78 SR 115,47.042614,-124.170718
QBRC QBRC 1,78 SR 115,47.042642,-124.170682
Doe Bay Resort,107 Doe Bay Rd,48.641279,-122.781015
THURSTON COUNTY COURTHOUSE 1,County Courthouse,47.028924,-122.913101
NRB Visitor Parking Lot,1111 Washington St SE,47.037347,-122.897324
MOTORPOOL VISITOR CTR 1,103 Sid Snyder Ave SW,47.035325,-122.901166
Nisqually Red Wind Casino,12819 Yelm Hwy SE,47.0002897,-122.6682861
Capital Mall North Entrance,625 Black Lake Blvd,47.042561,-122.9364625
CAPITAL GATEWAY STATION 8,505 14th Ave SE,47.035846,-122.8949
CAPITAL GATEWAY STATION 2,505 14th Ave SE,47.035865,-122.894692
Olympia Nissan,2220 Carriage Dr SW,47.031067,-122.930247
123 4th Apartments Location 2,123 4th Avenue W.,47.044722,-122.902484
Martin Way Marketplace,4280 Martin Way E,47.049617639,-122.829249413
Evergreen State College - Parking Lot C,2700 Evergreen Parkway,47.071917,-122.976675
CAPITAL GATEWAY STATION 3,505 14th Ave SE,47.035858,-122.894738
Capital Mall Best Buy,625 Black Lake Blvd,47.042821,-122.934577
CAPITAL GATEWAY STATION 4,505 14th Ave SE,47.035855,-122.894786
CAPITAL GATEWAY STATION 6,505 14th Ave SE,47.035841,-122.895035
TW HYUNDAI SALES,2255 Carriage Loop SW,47.030911,-122.932627
Intercity Transit,510 Pattison Street SE,47.045574,-122.857714
Capital Mall REI,625 Black Lake Blvd,47.0420215,-122.938283
OLY CITY HALL OLY CITY HALL 1,601 4th Ave E,47.04506,-122.89476
123 4th Apartments Location 1,123 4th Avenue W.,47.044728,-122.902484
CAPITAL GATEWAY STATION 1,505 14th Ave SE,47.035867,-122.894632
FAST FUEL 2 STATION 1,501 Lilly Rd SE,47.04451,-122.8451
Courtyard by Marriott Olympia,2301 Henderson Park Ln SE,47.028426,-122.8942
CAPITAL GATEWAY STATION 5,1 14th Ave SE,47.035839,-122.895096
Crescent Point Apartments,4907 Dunham Drive,47.0027896,-122.8474706
FAST FUEL 2 STATION 2,501 Lilly Rd SE,47.044497,-122.845142
PORT OF OLYMPIA EAST,700 Capitol Way N,47.050914,-122.902502
PERC STATION 1,112 Henry St NE,47.046577,-122.882704
Office Park,2404 Heritage Court SW,47.02759,-122.920589
CAPITOL CITY STATION 01,2370 Carriage Loop SW,47.03286,-122.92909
Swantown Inn & Spa - Tesla Destination,1431 11th Ave SE,47.03909,-122.882327
Hotel RL by Red Lion - Tesla Destination,2300 Evergreen Park Dr SW,47.027278,-122.912415
MOTORPOOL PRO ARTS 1,208 11th Ave SE,47.038242,-122.899229
CAPITAL GATEWAY STATION 7,505 14th Ave SE,47.035837,-122.894963
Cooper Point Marketplace,3215 Harrison Ave NW,47.04583576,-122.94200684
AGR Olympia,3939 Cleveland Ave.,47.011089,-122.896054
InterCityTransit,2548 Hogum Bay Rd NE,47.067908,-122.76289
Olympia Yacht Club,201 Simmons St NW,47.045491,-122.906952
Omak Inn,912 Koala Dr,48.421424,-119.503978
Veranda Beach Resort - Tesla Destination,299 Eastlake Rd,48.987053,-119.425912
Camaray Motel,1320 Main St,48.938283,-119.436456
"Cafaro SOUTH HILL MALL (PUYALLUP, WA)",3700 S. MERIDIAN,47.15598,-122.29757
Seabrook EV Chargers,351 Parkview Ln,47.19404038977142,-124.1980829153442
ESD PACKWOOD DCFC,13053 US-12,46.6099,-121.669522
ESD PACKWOOD L2,13053 US-12,46.609914,-121.669494
CAR CHARGE 1 STATION 1,2120 W A St,46.225504,-119.118868
Courtyard by Marriott Pasco Tri-Cities Airport - Tesla Destination,2011  West Argent Road,46.25605,-119.11724
Bill Robertson Nissan,928 N 28th Ave,46.236607,-119.128998
Red Lion Hotel Pasco - Tesla Destination,2525 North 20th Ave,46.250235,-119.116144
Franklin PUD Energy Services,1411 W Clark,46.229119,-119.106522
Yokes Grocery - Tesla Supercharger,4905 North Road 68,46.272432,-119.182453
Howard's Lakeshore Inn,233 Lakeshore Dr,48.051825,-119.901506
Safeway 110 East 3rd St,110 East 3rd St,48.1161725,-123.4347265
"Walmart 2196 (Port Angeles, WA)",3411 E KOLONELS WAY,48.10993,-123.36134
PORT ANGELES CITY HALL #2,308 E 4th St,48.114488,-123.431968
"George Washington Inn, a Select Registry Property - Tesla Destination",939 Finn Hall Rd,48.116414,-123.255357
PORT ANGELES CITY HALL #3,308 E 4th St,48.114455,-123.431904
Dan Wilder Nissan,53 Jetta Way,48.102863,-123.342273
PORT ANGELES CITY HALL #1,308 E 4th St,48.114513,-123.43206
Olympic National Park - Sol Duc Hot Springs Resort,12076 Sol Duc Hot Springs Rd,47.96937,-123.86338
Colette's Bed and Breakfast - Tesla Destination,339 Finn Hall Rd,48.1149208,-123.2683981
Ruddell Auto,110 S Golf Course Rd,48.10556,-123.40325
Camaraderie Cellars - Tesla Destination,334 Benson Rd,48.101579,-123.477119
"Kroger Fred Meyer 655 (Port Orchard, WA)",1900 SE Sedgwick Rd,47.50453,-122.62941
Haven on Sidney,4999 Sidney Road Southwest,47.5023415,-122.6523737
Orchard on the Green,2250 Sidney Ave,47.513098,-122.652068
Mile Hill Plaza,1434 Onley Ave SE,47.535286,-122.6101915
Kitsap Transit - Harper Church,10384 SE Sedgwick Rd.,47.504444,-122.516388
Safeway 370 S W Sedgwick Rd,370 S W Sedgwick Rd,47.496601419,-122.652109803
John L Scott Real Estate,2219 W Sims Way,48.102409,-122.80229
GreenPod Development,1531 W Sims Way,48.103061,-122.794143
ReVision Marine,301 10th Street,48.10697,-122.779991
Power Trip Energy Corp,83 Denny Ave,48.093634,-122.813252
Windermere Real Estate,1220 Water St,48.113018,-122.760544
Safeway 442 W Sims Way,442 W Sims Way,48.108127484,-122.78202579
Norland Trails,Northwest Advance Drive,47.7651883,-122.6573597
POULSBO STATION 1,20150 7th Ave NE,47.744532,-122.639463
"Kitsap Transit - North Viking Poulsbo Park N Ride, WA",21711 Vetter Rd NW,47.75946,-122.661047
Port of Poulsbo,19133 Jensen Way NE,47.736632,-122.647204
CHARGEPOINT CENTRAL MARKET,20148 10th Ave. NE,47.746624,-122.636916
"Walmart 5272 (Poulsbo, WA)",21200 Olhava Way NW,47.75648,-122.66051
POULSBO STATION 2,20150 7th Ave NE,47.744534,-122.63931
Olympic College Poulsbo,1000 Olympic College Way NW,47.76572183096526,-122.6627871606062
Safeway 19245 10th Ave Ne Poulsbo WA 98370,19245 10th Ave Ne,47.737887216,-122.636288
Prosser,40 Merlot Drive,46.219996,-119.78951
TRANS SERVICES TERRELL,Terrell Parking Garage Cougar Way,46.732394,-117.164374
TRANS SERVICES SCUE,Smith Center Parking Garage Stadium Way,46.729675,-117.161393
TRANS SERVICES PACCAR,2000 Grimes Way,46.729734,-117.156333
Holiday Inn Express Pullman - Tesla Destination,1190 SE Bishop Blvd,46.715837,-117.166626
TRANS SERVICES DANA WEST,305 NE Spokane Street,46.730066,-117.169086
Hotel McCoy,455 SE Paradise St,46.72914,-117.177179
COP_ CITY HALL NO. 1,190 SE Crestview St,46.719669,-117.181523
COP_ CITY HALL NO. 3,190 SE Crestview St,46.719919,-117.182462
COP_ CITY HALL NO. 2,190 SE Crestview St,46.71994,-117.182416
P1FCU,745 SE Fairmount Dr.,46.71111,-117.17948
Pullman DCFC,150 E Spring St.,46.729875,-117.174581
Gold Parking Lot,110 9th Ave SW,47.184778,-122.29331
Bill Korum's Puyallup Nissan,101 Valley Ave NW,47.207367,-122.294997
TOYOTA PUYALLUP SALES PARKING 2,1406 15th St NW,47.203619,-122.313662
Red Parking Lot,110 9th Ave SW,47.185296,-122.299236
Meridian Town Center,13308 Meridian Ave E.,47.135190354,-122.294424858
Summit Country Center,11012 Canyon Road East,47.1558165,-122.358682
Glacier 1,12020 Sunrise Boulevard East,47.0968511,-122.2694515
TOYOTA PUYALLUP SALES PARKING 1,1406 15th St NW,47.203639,-122.313561
"Amazon Go WA Puyallup South, Puyallup WA",15518 Meridian Ave E,47.115002,-122.294053
Blue Parking Lot - North,10th Ave SE,47.182613,-122.291317
Hampton Inn and Suites Puyallup - Tesla Destination,1515 S Meridian,47.17669,-122.2931
"Frederickson Place - Frederickson, WA DCFC",17710 Canyon Road East,47.0958375,-122.357127
"Kohl's Puyallup, WA",16918 Meridian Avenue East,47.101923,-122.296815
PERMANENTE KP PUYALLUP #4,1009 39th Ave SE,47.155357,-122.28065
KORUM HYUNDAI PC 2,111 River Rd,47.199421,-122.295091
KORUM HYUNDAI PC 1,111 River Rd,47.199423,-122.295043
Glacier 2,12020 Sunrise Blvd E,47.2125843,-122.240193
Pioneer Crossing,712 Shaw Rd,47.184725,-122.257002
PERMANENTE KPP #3,1007 39th Ave SE,47.155403,-122.28066
PERMANENTE KPP #1,1007 39th Ave SE,47.155502,-122.28065
GROUPHEALTH PYP KP PUYALLUP #5,1007 39th Ave SE,47.155304,-122.280655
PERMANENTE KP PUYALLUP #2,1007 39th Ave SE,47.15545,-122.28066
Seattle Premium Outlets,10600 Quil Ceda Blvd,48.09264,-122.1897
Lake Quinault Lodge,345 S Shore Rd,47.465555,-123.850735
Shell Gas Station - Tesla Supercharger,16010  Road 1 Northwest,47.103405,-119.83392
Cave B Estate Winery & Resort - Tesla Destination,344 Silica Rd NW,47.098792,-119.996204
MDS QUINCY DCQUINCYMWH0601,1515 Port Industrial Way,47.238641,-119.895401
MDS QUINCY DCQUINCYMWH0602,1515 Port Industrial Way,47.238277,-119.895745
ESD RANDLE DCFC,9781 US-12,46.535837,-121.958914
ESD RANDLE L2,9781 US-12,46.535844,-121.958906
Willows Building B,12277 134th Court Northeast,47.7096188,-122.1623907
RADIATE 4000 RADIATE 1,15808 Bear Creek Pkwy,47.673795,-122.128859
RADIATE 4000 RADIATE 2,15808 Bear Creek Pkwy,47.673824,-122.128893
REFLECTIONS REFLECTIONS 1,6422 E Lake Sammamish Pkwy NE,47.663672,-122.098617
ALOFT ALOFT ELEMENT 2,2752-2836 152nd Ave NE,47.635607,-122.137229
Seattle Marriott Redmond - Tesla Destination,7401 164th Ave NE,47.671225,-122.122192
Willows Building D,12034 134th Court Northeast,47.7088267,-122.1601307
The Village at Overlake,2580 152nd Avenue Northeast,47.633041,-122.136031
"BofA Overlake Park WA3-152 (Redmond, WA)",2400 148th Avenue NE,47.63187,-122.14277
Albertsons 3925 236Th Ave NE Redmond WA,3925 236Th Ave NE,47.645190854,-122.025976837
Redmond Town Center (West Garage),16331 Northeast 72nd Way,47.6688074,-122.122092
Archer Hotel at Redmond Town Center - Tesla Destination,7200 164th Ave NE,47.6804551,-122.1217694
Willows A,11431 Willows Road,47.70340520000001,-122.15378520000002
"Target T0995 - Redmond, WA",NE 76th St.,47.67179,-122.10457
KOHL'S - CHPT 1136 REDMOND 1,17601 NE Union Hill Rd,47.67511,-122.103812
531606 : Willows Commerce Park - DigiPen,9931 Willows Road,47.688818,-122.150315
431606 : Avalon ParcSquare,16080 Northeast 85th Street,47.6788524,-122.1260216
"Hampton Inn & Suites - Redmond, WA",17770 NE 78th Place,47.673966,-122.103558
KOHL'S - CHPT 1136 REDMOND 2,17601 NE Union Hill Rd,47.67505,-122.104091
KING COUNTY DES VDC #1,18655 NE Union Hill Rd,47.676051,-122.091578
RED 160,16015 Cleveland St,47.674374,-122.127167
ALOFT ALOFT ELEMENT 1,2752-2836 152nd Ave NE,47.635651,-122.136671
KING COUNTY DES VDC #2,18655 NE Union Hill Rd,47.676062,-122.091497
531605: Park East Business Park,18005 Northeast 68th Street,47.6665847,-122.0991426
Redmond Town Center,7525 166th Ave,47.67137,-122.11949
Resound Energy - Redmond Town Center,7597 170th Ave NE,47.670465,-122.114889
KING COUNTY DES VDC #3,18655 NE Union Hill Rd,47.676078,-122.091413
REFLECTIONS RFEFLECTIONS 3,6416 E Lake Sammamish Pkwy NE,47.662861,-122.097803
CITY OF REDMOND MOC #1 PUBLIC,18080 NE 76th St,47.672359,-122.099034
CITY OF REDMOND CITY HALL DUAL,15670 NE 85th St,47.679224,-122.12995
AMZ MONSTER #1,1167 Monster Rd SW,47.4742,-122.24461
Safeway 2725 NE Sunset Blvd,2725 NE Sunset Blvd,47.499129,-122.180651
Safeway 200 South 3rd St.,200 South 3rd St.,47.4799835,-122.215076
South 405 Place,900 SW 16th Street,47.46655,-122.22995
VALLEY MED CTR N GARAGE #2,4033 Talbot Rd S,47.444685,-122.214496
"Target T2290 - Renton, WA",1215 N Landing Way,47.49729,-122.1993
The Wayne Apartments,13850 Southeast 180th Street,47.4418203,-122.1554235
VALLEY MED CTR NE GARAGE #4,3917 Talbot Rd S,47.444636,-122.21277
VALLEY MED CTR NE GARAGE #1,3921 Talbot Rd S,47.444946,-122.212785
Wonderland Estates,14645 Maple Valley Hwy,47.465678,-122.142289
BLACKRIVER BLACKRIVER #3,620 Naches Ave SW,47.474427,-122.233381
Southport Garage Level B,1103 Lake Washington Blvd. No.,47.501865833,-122.203970833
PSEJATC,550 SW 7th St,47.474171,-122.224102
BLACKRIVER JSH DUAL #1,923 Powell Ave SW,47.471546,-122.232002
IKEA - Tesla Supercharger,601 SW 41st St,47.443065,-122.225152
Younker Nissan,3401 E Valley Rd,47.448354,-122.2188
The Landing,828 N 10th Pl,47.49845,-122.20461
McLendon Hardware,440 Rainier Ave South,47.477362,-122.215347
Fairwood Apartments,14300 SE 171st Way,47.446482,-122.148366
VALLEY MED CTR NE GARAGE #2,3921 Talbot Rd S,47.444881,-122.212781
Topgolf 780 Logan Avenue North,780 Logan Avenue North,47.494084378,-122.206335298
KING COUNTY DES RENTON 2,155 Monroe Ave NE,47.482565,-122.175843
BLACKRIVER BLACKRIVER #2,620 Naches Ave SW,47.474453,-122.233397
City of Renton - City Hall,1055 S Grady Way,47.474537,-122.204976
"Walgreens - Renton, WA #12497",4105 NE 4th St,47.4884945,-122.1642138
VALLEY MED CTR MAIN LOT #8,4109-4251 Talbot Rd S,47.443123,-122.212538
KING COUNTY DES RENTON 1,155 Monroe Ave NE,47.482839,-122.176025
IKEA USA RENTON 2,601 SW 41st St,47.442791,-122.227276
VALLEY MED CTR N GARAGE #1,4033 Talbot Rd S,47.444606,-122.214491
VALLEY MED CTR MAIN LOT #6,400 S 43rd St,47.443215,-122.212479
IKEA USA RENTON ST 1,601 SW 41st St,47.442789,-122.227261
VALLEY MED CTR MAIN LOT #5,400 S 43rd St,47.443255,-122.212445
IKEA USA RENTON 3,601 SW 41st St,47.442974,-122.227286
VALLEY MED CTR NE GARAGE #3,3917 Talbot Rd S,47.444763,-122.21277
2000 Lake Washington Apartments,1300 North 20th Street,47.50982,-122.20117
Southport South Garage Level A,1103 Lake Washington Blvd. No.,47.501408833,-122.2044995
Southport Garage Level A,1103 Lake Washington Blvd. No.,47.5015305,-122.20464175
VALLEY MED CTR MAIN LOT #7,4109-4251 Talbot Rd S,47.443161,-122.212511
Southport Garage Level C,1103 Lake Washington Blvd. No.,47.50222425,-122.203510417
Richland,2700 Duprotail St.,46.26024,-119.309695
Audi Tri-Cities,1125 Aaron Dr,46.259655,-119.282117
Hampton Inn Richland/Tri-Cities - Tesla Destination,486 Bradley Blvd,46.271849,-119.269167
Homewood Suites Richland - Tesla Destination,1060 George Washington Wy,46.281294,-119.273452
La Bella Vita Kitchen and Bar,1515 George Washington Way,46.2925976863444,-119.274740824072
DC RICHLAND 2,1457 Tapteal Drive,46.230229,-119.226637
Pacific Office Solutions,2574 Roberson Drive,46.324948,-119.308371
ILANI STATION 3,1 Cowlitz Way,45.852356,-122.708312
ILANI 3B-1 DUAL,1 Cowlitz Way,45.85314,-122.709076
ILANI 1B-1 DUAL,1 Cowlitz way,45.853153,-122.70891
ILANI 3B-2 DUAL,1 Cowlitz Way,45.853123,-122.70916
ILANI 3A-2 SINGLE,1 Cowlitz Way,45.8533,-122.70874
ILANI 3A-3 DUAL,1 Cowlitz Way,45.85321,-122.709045
ILANI 3C-1 SINGLE,1 Cowlitz Way,45.853115,-122.709
DAVIS PARK STATION 1,210 N Main Ave,45.816957,-122.74557
ILANI 3C-2 DUAL,1 Cowlitz Way,45.853092,-122.708916
ILANI 3A-1 DUAL,1 Cowlitz Way,45.853176,-122.70878
ILANI COWLITZ 1,1 Cowlitz Way,45.852508,-122.708365
Junction Park & Ride - Tesla Supercharger,125 N 65th Ave,45.817752,-122.682883
Ilani Casino Resort,3710 NW 319th St,45.852337,-122.708397
RIDGEFIELD NWR STATION 1,28908 NW Main Ave,45.82999,-122.74774
Birkenstock,17506 NE Delfel Ct,45.748069,-122.662816
ILANI 3B-3 SINGLE,1 Cowlitz Way,45.853138,-122.70895
Rosauers - Ridgefield,101 S. 47th Avenue,45.814726,-122.7015315
I-5 Gee Creek NB Rest Area,"Interstate 5, Milepost 11 South",45.77671,-122.669
Ridgefield - Country CafÃ©,6370 N. 1st Circle,45.81749,-122.68359
ILANI STATION 2,1 Cowlitz Way,45.852238,-122.708784
ILANI 3A-4 DUAL,1 Cowlitz Way,45.850762,-122.708196
Conoco,1293 S Division St,47.118605,-118.365561
Best Western Plus Bronco Inn - Tesla Supercharger,105 W Galbreath Way,47.116294,-118.368328
Cow Creek Mercantile,1611 Smittys Blvd.,47.11948,-118.36271
Roche Harbor Resort LLC,248 Reuben Memorial Drive,48.60856686159947,-123.15288171604192
Roche Harbor Marina,160 Ruben Memorial Dr,48.607282,-123.153777
Grand Mound Liquor Store,19947 Old Highway 99 SW,46.798453,-123.0123
Skagit General Store,500 Newhalem St,48.6735,-121.244711
Seattle City Light - Newhalem Parking Lot,500 Newhalem St,48.673466,-121.261467
Rosalia,607 S Whitman Ave,47.23432,-117.370158
Gonzaga Fast,721 N Cincinnati,47.663105,-117.40049
ESD SALKUM L2,2480 US-12,46.531353,-122.630243
ESD SALKUM DCFC,2480 US-12,46.531361,-122.629874
SAMMAMISH CITY HALL LOT 1,801 228th Ave SE,47.601564,-122.036305
SAMMAMISH GARAGE 2,801 228th Ave SE,47.601615,-122.036718
SAMMAMISH CITY HALL LOT 2,801 228th Ave SE,47.60161,-122.036303
SAMMAMISH SAMM VILLAGE #1,301 - 228th Avenue SE,47.605953,-122.037391
Sammamish Highlands,510 228Th Ave Ne,47.6141025,-122.0341465
Pine Lake Village,3016 Issaquah-Pine Lake Rd Se,47.5831155,-122.03388
SAMMAMISH SAM VILLAGE #2,22612 SE 4th St,47.606215,-122.037426
"Saffron Partners, L.L.C. (Retail)",22850 NE 8th Street,47.6169094,-122.0334614
SAMMAMISH GARAGE 1,801 228th Ave SE,47.601657,-122.036938
Sea Tac Office Center,18000 International Blvd.,47.4413275,-122.2950909
CI&S COUNTRY INN #1,3100 S 192nd St,47.431736,-122.29395
CITY OF SEATAC CITY HALL 1,4800 S 188th St,47.434021,-122.273183
PUBLIC CHARGING ANGLE LAKE #3,2702 S 200th St,47.423292,-122.298719
PUBLIC CHARGING ANGLE LAKE #2,2702 S 200th St,47.423319,-122.298723
PUBLIC CHARGING ANGLE LAKE #4,2702 S 200th St,47.42327,-122.298719
PUBLIC CHARGING ANGLE LAKE #1,2702 S 200th St,47.423345,-122.298724
MasterPark/Lot B,2907 South 170th Street,47.45061,-122.294966
MasterPark Valet Garage,16826 International Blvd,47.451709,-122.295497
CITY OF SEATAC CITY HALL 2,4800 S 188th St,47.43361,-122.27274
CI&S COUNTRY INN #2,3100 S 192nd St,47.43163,-122.29393
Abbey Ridge Apartments,3035 S 204th St.,47.418161,-122.292929
Union Bay Plaza,4516 Union Bay Pl NE,47.6619766883491,-122.293346008603
525 NORTHGATE RETAIL #1,525 NE Northgate Way,47.707951,-122.321496
University of Washington - Parking Lot N22,4060 E Stevens Way NE,47.6560149395404,-122.305003488076
Four Seasons Hotel Seattle - Tesla Destination,99 Union St,47.607651,-122.339418
University of Washington - Parking Area W40,814 NE Northlake Pl,47.6548806651459,-122.319211227533
Stone Way N Parking Garage,3400 Stone Way N,47.6492281351155,-122.342061617054
US Bank Center Garage,1465 6th Ave,47.610826048907,-122.334346934116
AMZ SEA25.26 - 4,550 Terry Ave N,47.623327,-122.336677
Puget Sound Solar,805 Rainier Ave S,47.5955737030563,-122.311841805333
City of Seattle - Central Library,1000 4th Ave,47.606684,-122.332664
Columbia Center Tower,701 5th Ave,47.604817,-122.330568
1700 Seventh,"1700 7th Avenue, Suite 1800",47.614019,-122.335273
T-MOBILE PARK GRIFFEY,1518 1st Ave S,47.589593,-122.332945
Shafer Baillie Mansion Bed & Breakfast - Tesla Destination,907 14th Ave E,47.6270468,-122.3149606
Hotel Max - Tesla Destination,620 Stewart St,47.614141,-122.336357
AMZ SEA44-9,2205 7th Ave,47.616663,-122.340794
AMZ SEA44-6,2205 7th Ave,47.616663,-122.340804
AMZ SEA44-7,2205 7th Ave,47.616653,-122.340794
AMZ SEA44-5,2205 7th Ave,47.616662,-122.340786
AMZ SEA40-12,2021 7th Ave,47.615297,-122.338221
AMZ SEA40-8,2021 7th Ave,47.615311,-122.338245
Four Points by Sheraton Downtown Seattle Center - Tesla Destination,601 Roy St,47.625378,-122.344596
188 BLAINE ATRIUM2,1818 Fairview Ave East,47.635115,-122.325799
KING COUNTY DES KSC STATION #6,201 S Jackson St,47.598754,-122.331002
Lumen Field Parking Garage,300 S Royal Brougham Way,47.5926384626354,-122.330869270063
City of Seattle - Seattle Center,516 Harrison St,47.622085,-122.347124
KING COUNTY DES SAFETY TRAIN 2,3401 S. Norfolk St.,47.512,-122.28809
VIA6 VIA6-SOUTH,2121 6th Ave,47.613883,-122.339405
KING COUNTY DES KC FAUNTLEROY1,4829 SW Barton St,47.523232,-122.393365
KING COUNTY DES SAFETY TRAIN 3,3401 S. Norfolk St,47.511906,-122.2884
KING COUNTY DES KSC STATION #4,201 S Jackson St,47.598665,-122.330941
SCH CURE P2 #4,1920 Terry Ave,47.616932,-122.33399
KING COUNTY DES SAFETY TRAIN 4,3401 S Norfolk St,47.51099,-122.29256
KING COUNTY DES KSC STATION #2,201 S Jackson St,47.59855,-122.331009
800 FIFTH AVE STATION 2,800  5th Ave,47.605599,-122.330626
KING COUNTY DES KSC STATION #3,201 S Jackson St,47.59856,-122.330929
KING COUNTY DES KSC STATION #1,201 S Jackson St,47.598663,-122.331009
The Alexis Royal Sonesta Hotel Seattle,1007 First Avenue,47.604891,-122.336815
SCH CURE P2 #3,1920 Terry Ave,47.616886,-122.334045
KING COUNTY DES KSC STATION #7,201 S Jackson St,47.598758,-122.330972
521603_Pike Tower,520 Pike St.,47.611198,-122.334788
1800 Ninth Building,1800 9th Ave,47.615249,-122.3332564
Magnuson Park,Sportsfield Dr NE,47.681381,-122.25875
UWMC 4245 UWMC 4245 #1,4245 Roosevelt Ave NE,47.658961,-122.3185
VOLVO CAR USA SEATTLE DC4,1st Ave S & S Stacy St,47.581595,-122.334777
VOLVO CAR USA SEATTLE DC3,1st Ave S & S Stacy St,47.5816,-122.33481
VOLVO CAR USA SEATTLE DC2,1st Ave S & S Stacy St,47.581601,-122.334848
VOLVO CAR USA SEATTLE DC1,1st Ave S & S Stacy St,47.5816,-122.334883
BIOMED REALTY DEXTER YARD-S4,700 Dexter Ave N,47.625821,-122.342051
BIOMED REALTY DEXTER YARD-S1,700 Dexter Ave N,47.625629,-122.342054
UWMC 4225 UWMC 4225 #1,4225 Roosevelt Way NE,47.658409,-122.318392
BMW SEATTLE BMW SALES,1002 Airport Way S,47.594042,-122.323977
ALLEN INSTITUTE SOUTH,615 Westlake Ave N,47.625077,-122.339032
AMZ SEA40-10,2021 7th Ave,47.615303,-122.338242
AMZ SEA43 - 19,2231 8th Ave,47.617525,-122.340196
AMZ SEA40-13,2021 7th Ave,47.61532,-122.338246
AMZ SEA27-28 P6 015,345 Boren Ave N,47.621564,-122.336999
AMZ SEA27-28 P6 010,345 Boren Ave N,47.621597,-122.337012
Hilton Seattle Airport,17620 International Blvd,47.444398,-122.29516
AMZ SEA27-28 P6 011,345 Boren Ave N,47.621624,-122.336999
INSIGNIA 953 140 141,588 Bell St,47.616616,-122.342831
"ARE-Seattle No. 12, LLC",1165 Elake Ave E,47.25033,-122.18104
Ballard Blocks,1451 NW 46th St,47.6617217,-122.3758674
INSIGNIA 953 218 219,588 Bell St,47.616537,-122.342701
AMZ SEA27-28 P6 009,345 Boren Ave N,47.621547,-122.33698
Carkeek Plaza,9999 Holman Rd NW,47.701359,-122.363146
AMZ SEA27-28 P6 008,345 Boren Ave N,47.621566,-122.336961
AMZ SEA27-28 P6 006,345 Boren Ave N,47.621587,-122.336956
Northgate QFC,11100 Roosevelt Way NE,47.70931,-122.31601
SeaTac Cell Phone Parking Lot,2623 S 170th St,47.450258,-122.299448
Interbay Business Center,1600 West Armory Way,47.63986,-122.377668
Northgate Mall,401 NE Northgate Way,47.7033,-122.32519
DUAL EV STATION 4,2520 NE University Village St,47.663931,-122.300224
Harborview Medical Center,908 Jefferson,47.605477,-122.323427
INSIGNIA 953 136 137,588 Bell St,47.616703,-122.342746
INSIGNIA 953 95 96,588 Bell St,47.616701,-122.342813
INSIGNIA 953 134 135,588 Bell St,47.616676,-122.342772
VIDA APARTMENTS VIDA 1,1205 NE 66th ST,47.678055,-122.314119
REI,222 Yale Ave,47.62066,-122.32952
INSIGNIA 953 103 104,588 Bell St,47.616679,-122.342837
DUAL EV STATION 1,2520 NE University Village St,47.663975,-122.300272
King Plaza,7101 Martin Luther King Jr Way S,47.538782,-122.282797
DUAL EV STATION 2,2520 NE University Village St,47.663935,-122.300285
INSIGNIA 953 212 213,588 Bell St,47.616588,-122.342651
Whole Foods Madison Broadway,1001 Broadway,47.611261,-122.320999
Whole Foods Seattle (Westlake),2210 Westlake Ave,47.6183604,-122.3383451
Terravita,1615 Belmont Avenue,47.615584085535176,-122.32467640397034
INSIGNIA 953 142 143,588 Bell St,47.616646,-122.3428
AMZ SEA40-11,2021 7th Ave,47.615305,-122.338215
INSIGNIA 953 101 102,588 Bell St,47.616655,-122.34286
188 BLAINE ATRIUM4,1818 Fairview Ave East,47.635213,-122.325845
AMZ SEA40-9,2021 7th Ave,47.615314,-122.338234
AMZ SEA40-7,2021 7th Ave,47.615307,-122.338225
AMZ SEA41-13,2121 7th Ave,47.61607,-122.339824
AMZ SEA41-8,2121 7th Ave,47.616076,-122.339844
INSIGNIA 953 146 147N,583 Battery St,47.606191,-122.3321
AMZ SEA42-12,2100 7th Ave,47.616271,-122.338868
AMZ SEA42-13,2100 7th Ave,47.616276,-122.338848
AMZ SEA42-16,2100 7th Ave,47.616277,-122.338872
AMZ SEA42-15,2100 7th Ave,47.616265,-122.338863
AMZ SEA42-17,2100 7th Ave,47.616259,-122.338853
AMZ SEA41-14,2121 7th Ave,47.616082,-122.339821
AMZ SEA41-11,2121 7th Ave,47.616083,-122.33985
AMZ SEA41-12,2121 7th Ave,47.616071,-122.339854
AMZ SEA41-20,2121 7th Ave,47.616055,-122.33985
AMZ SEA41-19,2121 7th Ave,47.616055,-122.339829
AMZ SEA41-24,2121 7th Ave,47.616062,-122.339845
AMZ SEA41-16,2121 7th Ave,47.616069,-122.339882
Washington Athletic Club Garage - Tesla Destination,1325 6th Ave,47.609629,-122.333133
RPNW IBM #2,1200 5th Ave,47.608601,-122.333012
AMZ SEA27-28 P6 014,345 Boren Ave N,47.621596,-122.337002
AMZ SEA41-7,2121 7th Ave,47.616076,-122.339828
AMZ SEA41-10,2121 7th Ave,47.616069,-122.339836
AMZ SEA27-28 P6 013,345 Boren Ave N,47.621517,-122.336996
188 BLAINE ATRIUM3,1823 Eastlake Ave E,47.635119,-122.325866
AMZ SEA27-28 P6 012,345 Boren Ave N,47.621611,-122.336961
DUAL EV STATION 3,2520 NE University Village St,47.66392,-122.300272
AMZ SEA41-9,2121 7th Ave,47.616081,-122.339836
AMZ SEA41-21,2121 7th Ave,47.616062,-122.339797
AMZ SEA41-22,2121 7th Ave,47.616069,-122.339786
AMZ SEA41-23,2121 7th Ave,47.616069,-122.339818
AMZ SEA41-17,2121 7th Ave,47.616026,-122.339818
AMZ SEA27-28 P6 007,345 Boren Ave N,47.621558,-122.336929
AMZ SEA42-14,2100 7th Ave,47.61628,-122.338861
The Fairmont Olympic Hotel - Tesla Destination,411 University St,47.608043,-122.334072
"Walgreens at 4412 Rainier Ave, Seattle",4412 Rainier Ave S,47.563966,-122.287468
AMZ SEA25.26-9,551 Boren Ave N,47.624137,-122.336153
AMZ SEA25.26-8,551 Boren Ave N,47.624088,-122.336176
AMZ SEA25.26-7,551 Boren Ave N,47.624108,-122.33611
AMZ SEA25.26-6,551 Boren Ave N,47.624117,-122.336165
AMZ SEA25.26-5,551 Boren Ave N,47.624088,-122.336144
SKY SERVICE BFI 8555,8555 Perimeter Rd S,47.52439,-122.294334
Lake Union Building,1700 Westlake Ave N,47.633992,-122.339684
"531612 : PRISA Market Place Tower WA, LLC c/o CBRE",2025 1st Avenue,47.6113722,-122.343703
(Public P1) Commons at Ballard,5621 22nd Avenue Northwest,47.66981,-122.38494
431607 : AVA Belltown,2800 Western Avenue,47.6160967,-122.3527187
Fred Hutchinson - Cancer Center,825 Eastlake Ave E,47.626531,-122.329993
North Beacon Hill,2535 16th Ave S,47.58002,-122.312203
INSIGNIA 953 225N,583 Battery St,47.606111,-122.332163
431608 : AVA Queen Anne,330 3rd Avenue West,47.6215389,-122.3602985
431603 : AVA Capitol Hill,1530 Belmont Avenue,47.6148399,-122.3241666
INSIGNIA 953 194N,583 Battery St,47.606182,-122.33206
T-MOBILE PARK EDGAR,1518 1st Ave S,47.589701,-122.332937
SEATTLE HQ 2240-2241,Helix Way,47.628986,-122.374253
SEATTLE HQ 2245-2246,Helix Way,47.628828,-122.374029
SEATTLE HQ 2006-2007,Helix Way,47.628831,-122.374123
SEATTLE HQ 2249-2250,Helix Way,47.628816,-122.374053
SEATTLE HQ 2251-2252,Helix Way,47.62879,-122.373934
SEATTLE HQ 2253-2254,Helix Way,47.628781,-122.373925
AMZ SEA25.26-10,551 Boren Ave N,47.624035,-122.336045
SEATTLE HQ 2016-2017,Helix Way,47.628977,-122.374338
SEATTLE HQ 2010-2011,Helix Way,47.628839,-122.374202
INSIGNIA 953 185N,583 Battery St,47.606126,-122.332195
SEATTLE HQ STATION 1,1280 16th Ave W,47.630845,-122.377326
SEATTLE HQ STATION 3,1280 16th Ave W,47.630379,-122.377129
SEATTLE HQ STATION 2,1280 16th Ave W,47.630731,-122.377299
SEATTLE HQ STATION 4,1280 16th Ave W,47.630844,-122.377344
KING COUNTY DES KSC STATION #5,253-295 S Jackson St,47.599,-122.330804
SEATTLE HQ 2004-2005,Helix Way,47.628734,-122.374079
520 Pike Tower,520 Pike St.,47.611102,-122.334893
First Hill Medical Building,515 Minor Ave,47.60636,-122.321639
AMZ SEA43 - 15,2231 8th Ave,47.617506,-122.340219
AMZ SEA43 - 12,2217 8th Ave,47.617496,-122.340242
AMZ SEA43 - 18,2231 8th Ave,47.617519,-122.340205
NRV NORTHGATE,10202 3rd Ave NE,47.702793,-122.32588
AMZ SEA43 - 13,2217 8th Ave,47.6175,-122.340235
400 DEXTER AVE 400 DEXTER 1,400 Dexter Ave N,47.622264,-122.342164
AMZ SEA43 - 14,2231 8th Ave,47.617505,-122.340227
DUAL EV SOUTH 2,2623 NE University Village St,47.661361,-122.298284
AMZ SEA27-28 P4 005,333 Boren Ave N,47.621341,-122.336351
AMZ SEA27-28 P4 004,333 Boren Ave N,47.621342,-122.336349
AMZ SEA43 - 10,2217 8th Ave,47.617454,-122.34029
AMZ SEA43 - 8,2217 8th Ave,47.617405,-122.340395
AMZ SEA43 - 11,2217 8th Ave,47.617498,-122.340269
AMZ SEA43 - 17,2217 8th Ave,47.617439,-122.340315
AMZ SEA43 - 9,2217 8th Ave,47.617425,-122.340333
Safeway Seattle #1143 - 8340 15th Ave Nw,8340 15th Ave NW,47.689356,-122.37659
AMZ SEA23-2,535 Terry Ave N,47.623911,-122.337694
INSIGNIA 953 143N,583 Battery St,47.606162,-122.332173
INSIGNIA 953 188 189N,583 Battery St,47.606153,-122.332134
AMZ SEA25.26- 11,551 Boren Ave N,47.624014,-122.336271
AMZ SEA24 03,510 Boren Ave N,47.624139,-122.335419
AMZ SEA24 07,510 Boren Ave N,47.623947,-122.335413
AMZ SEA24 06,500 Boren Ave N,47.624,-122.335571
6100 Building,6100 4th Avenue S.,47.5469551,-122.3288731
AMZ SEA24 08,500 Boren Ave N,47.623978,-122.335571
AMZ SEA24 04,526 Boren Ave N,47.62398,-122.335809
Central District MLK Jr Way S,241 Martin Luther King Jr Way South,47.60025,-122.29722
AMZ SEA29 - 7,207 Boren Ave,47.620482,-122.336253
AMZ SEA29 - 9,207 Boren Ave,47.62044,-122.336175
AMZ SEA29 - 8,333 Boren Ave N,47.621486,-122.336188
AMZ SEA23 - 3,535 Terry Ave N,47.623798,-122.337642
AMZ SEA24 05,512 Boren Ave N,47.623864,-122.335662
SEATTLE HQ 2008-2009,Helix Way,47.62877,-122.374164
SEATTLE HQ 2244,Helix Way,47.628952,-122.374166
SEATTLE HQ 2012-2013,Helix Way,47.628906,-122.374292
"Walgreens - Seattle, WA #6389","8500 15th Ave NW, Ste A",47.6906401,-122.3767497
BMGF BMGF EV 01,500 5th Ave N,47.623464,-122.345818
Thrive,1222 East Madison Street,47.61360885799295,-122.31579498724822
CityLine,"4740 32nd Ave., S.",47.5597763,-122.2911963
DC CORRIDOR PAC SCI DC2,200 2nd Ave N,47.619059,-122.352384
Willow Crossing,6901 Martin Luther King Junior Way South,47.5403411,-122.2832798
1101 WESTLAKE 1101 #1,1101 Westlake Ave N,47.628886,-122.341407
Broadstone Strata,4906 25th Avenue Northeast,47.664513531216464,-122.30001030443889
Expo Apartments,118 Republican St,47.6232795,-122.354922
RPNW FC #2,319 University St,47.60803,-122.335262
MADISON GARAGE MADISON GARAGE2,1229 Madison St,47.610087,-122.322114
INSIGNIA 953 EV216,588 Bell St,47.616571,-122.342673
Portage Bay,2915 Fuhrman Ave E,47.648127,-122.317529
VM CHARGERS VIRGINIA MASON2,1012 Terry Ave,47.609528,-122.326393
Thompson Seattle - Tesla Destination,100 Stewart St,47.610335,-122.341261
Hotel 1000 - Tesla Destination,1000 1st Ave,47.6049041,-122.3361893
Motif Seattle - Tesla Destination,1415 5th Ave,47.610166,-122.335179
Safeway 4011 S 164th,4011 S 164th,47.45568,-122.281965
Hampton Inn and Suites Seattle-Downtown - Tesla Destination,500 5th Ave N,47.625675,-122.346886
Residence Inn by Marriott Seattle University Distric - Tesla Destination,4501 12th Ave NE,47.661869,-122.315415
AMZ SEA20-22 005,442 Terry Ave N,47.622867,-122.336753
AMZ SEA43 - 16,2231 8th Ave,47.61751,-122.340215
400 Fairview - Tesla Destination,400 Fairview Ave N,47.622544,-122.333913
INSIGNIA 953 190 191N,583 Battery St,47.616928,-122.343611
Bedrooms & More - Tesla Destination,324 NE 45th St,47.661523,-122.324913
Cedarbrook Lodge - Tesla Destination,18525 36th Ave S,47.4373126,-122.2876227
SCC SUMMIT SCC SUMMIT #1,1009 Olive Way,47.615003,-122.331809
SCC SUMMIT SCC SUMMIT #3,1009 Olive Way,47.61488,-122.331476
SCC SUMMIT SCC SUMMIT #2,1009 Olive Way,47.614938,-122.331583
SCC SUMMIT SCC SUMMIT #4,1009 Olive Way,47.614938,-122.331508
Hotel Theodore - Tesla Destination,1531 7th Ave,47.612347,-122.334168
Seattle Marriott Waterfront - Tesla Destination,2100 Alaskan Way,47.610845,-122.347258
Komo Plaza Garage,140 4th Ave N.,47.61928,-122.348035
ALLEN INSTITUTE NORTH,615 Westlake Ave N,47.625256,-122.339032
ARTIX ARTIX 1,400 Queen Anne Ave N,47.622256,-122.356564
BIOMED REALTY DEXTER YARD-S2,700 Dexter Ave N,47.625644,-122.341968
BIOMED REALTY DEXTER YARD-S5,700 Dexter Ave N,47.625645,-122.341914
INSIGNIA 953 214 215,588 Bell St,47.616629,-122.342611
INSIGNIA 953 232 233N,583 Battery St,47.606148,-122.332065
INSIGNIA 953 234N,583 Battery St,47.606155,-122.332037
BIOMED REALTY DEXTER YARD- S3,700 Roy St,47.625578,-122.342054
INSIGNIA 953 186 187N,583 Battery St,47.60614,-122.332163
The Martin,2105 5th Avenue,47.6144471,-122.3410102
SEATTLE HQ 2014-2015,Helix Way,47.628913,-122.374255
SEATTLE HQ 1022-1023,Helix Way,47.629005,-122.37427
SEATTLE HQ 2002-2003,Helix Way,47.628833,-122.374083
SEATTLE HQ 2247-2248,Helix Way,47.62887,-122.37405
SEATTLE HQ 2242-2243,Helix Way,47.628949,-122.374183
SEATTLE HQ 2238-2239,Helix Way,47.62902,-122.374217
DUAL EV SOUTH 1,2616 NE 46th St,47.661471,-122.299298
Fremont Village Square,3601 Fremont Ave N,47.651792,-122.3529158
T-MOBILE PARK FELIX,1518 1st Ave S,47.589803,-122.332999
INSIGNIA 953 226 227N,583 Battery St,47.606119,-122.332135
Eclipse Fremont,"909 N 39th St,",47.6539512,-122.3469551
AMZ SEA29 - 6,207 Boren Ave N,47.620085,-122.336021
ARTIX ARTIX 2,400 Queen Anne Ave N,47.622256,-122.356521
188 BLAINE ATRIUM #1,1818 Fairview Ave East,47.635108,-122.325721
INSIGNIA 953 215 216,583 Battery St,47.616992,-122.343984
INSIGNIA 953 228 229N,583 Battery St,47.606129,-122.332106
1101 WESTLAKE FB WESTLAKE 2,1101 Westlake Ave N,47.6289,-122.341536
Youngstown Flats,4040 26th Avenue Southwest,47.56716777356541,-122.36484747520292
Bedrooms & More,324 NE 45th St,47.661582,-122.32426
BMGF BMGF EV 02,500 5th Ave N,47.623424,-122.345872
Bedrooms & More,300 NE 45th St,47.66159,-122.324877
DC CORRIDOR PAC SCI L2,200 2nd Ave N,47.619056,-122.352371
INSIGNIA 953 152 153N,583 Battery St,47.606211,-122.332055
T-MOBILE PARK ICHIRO,1518 1st Ave S,47.589652,-122.332938
INSIGNIA 953 192 193N,583 Battery St,47.606171,-122.332083
AMZ SEA24 01,500 Boren Ave N.,47.623442,-122.335352
800 Fifth Avenue Parking Garage,800 5th Ave,47.6054544002366,-122.330085418863
Mason & Main,209 12th Ave South,47.6004833,-122.31738
700 5th Ave Seattle- DC Fast Charger,700 5th Ave,47.62606,-122.349
Apollo Eight LLC,325 9th Avenue,47.6039634,-122.3241159
THE OLIVIAN OLIVIAN #1,809 Olive Way,47.614104,-122.33319
THE OLIVIAN OLIVIAN #2,809 Olive Way,47.614112,-122.333147
1111 THIRD AVE SENECA GARAGE 1,1000 2nd Ave,47.606279,-122.335205
531619 : Apollo Eight LLC,325 9th Avenue,47.6039634,-122.3241159
THE MORROW APTS STATION 1,8623 Palatine Ave N,47.691832,-122.35681
THE MORROW APTS STATION 2,8616 Palatine Ave N,47.69158,-122.356266
531618 : Sidneysea LLC | Brazil,400 9th Avenue North,47.6228746,-122.3394194
"FRED MEYER 608 (Ballard, WA)",915 NW 45th Street,47.6594,-122.36947
1616 EASTLAKE ARE 1616 #1,1616 Eastlake Ave E,47.634438,-122.324583
Bigness,515 Westlake Avenue North,47.6241877,-122.3386584
531611 : Amazon Phase VI - Bigness,515 Westlake Avenue North,47.6241877,-122.3386584
700 5th Ave Seattle,700 5th Ave,47.60521,-122.32972
2+U - Tesla Supercharger,1201 Second Avenue,47.606601,-122.337495
PA PA CHARGER,2125 1st Ave,47.612154,-122.345283
Port of Seattle - Shilshole Bay Marina North Lot,"7001 Seaview Ave, NW #100",47.680804938616,-122.40486107918
AMZ SEA41 - 1,2121 7th Ave,47.616243,-122.340257
"QFC 807 (Seattle, WA)",2746 NE 45th St,47.66149,-122.29641
AMZ SEA40 - 2,2021 7th Ave,47.615399,-122.338834
AMZ SEA40 - 4,2021 7th Ave,47.615059,-122.338454
AMZ SEA40 - 3,2021 7th Ave,47.61554,-122.338778
AMZ SEA40 - 6,2021 7th Ave,47.614986,-122.338444
AMZ SEA40 - 5,2021 7th Ave,47.615052,-122.338336
CPA STATION 10,305 Thomas St,47.621409,-122.353711
CPA STATION 3,305 Thomas St,47.621313,-122.353652
CPA STATION 12,305 Thomas St,47.621413,-122.353638
CPA STATION 8,305 Thomas St,47.621376,-122.353648
CPA STATION 11,305 Thomas St,47.621411,-122.353676
CPA STATION 5,305 Thomas St,47.621312,-122.353589
CPA STATION 7,305 Thomas St,47.621377,-122.353675
CPA STATION 6,305 Thomas St,47.621377,-122.353708
CPA STATION 2,305 Thomas St,47.621309,-122.353679
CPA STATION 9,305 Thomas St,47.621378,-122.35362
Metpark North Garage,1220 Howell Street,47.617462,-122.3301695
AMZ SEA40 - 1,2021 7th Ave,47.615489,-122.338786
4th & Madison,925 4th Avenue,47.605192,-122.33285
BUTLER GARAGE BUTLER EV #2,611 2nd Ave,47.602553,-122.332883
2+U,1201 Second Ave,47.606659,-122.337363
Walgreens #11856 Seattle WA,566 Denny Way,47.619143,-122.34536
Safeway Market Street,1423 NW Market Street,47.6683535,-122.3749615
"Seattle, WA - Union Street (Wall Connector) - Tesla Destination",601 Union St,47.610142,-122.331887
Ballard Flats,2401 Northwest 63rd Street,47.6743748,-122.3878536
Port of Seattle - Shilshole Bay Marina South Lot,7001 Seaview Avenue Northwest,47.6807529,-122.4047949
DUAL EV STATION 5,2520 NE University Village St,47.663902,-122.300245
Seattle City Light S Service,409 South Spokane Street,47.571333,-122.328404
Union Square - Tesla Supercharger,601 Union Street,47.610024,-122.332078
SAINT MARK'S SAINT MARKS,1245 10th Ave E,47.63173,-122.32099
Alley 24 East,221 Yale Avenue North,47.620214,-122.330658
UP EV STATION STATION 1,4540 8th Ave NE,47.662815,-122.31902
531610: Stadium Innovation Center,1531 Utah Avenue South,47.5892477,-122.3358112
Avalara Hawk Tower,255 S. King Street,47.5980919,-122.3309701
Union Station Parking Garage (#USPG),550 4th Avenue South,47.5975078,-122.328595
Harvard Market,1425 Broadway,47.613498,-122.320931
BUTLER GARAGE BUTLER EV #1,611 2nd Ave,47.602544,-122.33301
DC CORRIDOR ZOO OTTER L2-S1,601 N 59th St,47.670285,-122.353765
DC CORRIDOR ZOO OTTER L2-D2,601 N 59th St,47.670287,-122.353696
"Rainier Beach WA3-155 ( Seattle, WA)",9019 RAINIER AVE S,47.52317,-122.27056
Ballard Blocks - Tesla Supercharger,1416 NW Ballard Way,47.662554,-122.37504
City of Seattle 1010 8th Ave,1010 8th Ave South,47.593975,-122.324221
REN DENNY CTR1,2014 Fairview Ave,47.618226,-122.333907
REN DENNY CTR2,2014 Fairview Ave,47.61823,-122.33392
REN DENNY CTR3,2014 Fairview Ave,47.618233,-122.33391
REN DENNY CTR4,2014 Fairview Ave,47.618223,-122.334017
REN DENNY CTR5,2014 Fairview Ave,47.618246,-122.333948
REN DENNY CTR6,2014 Fairview Ave,47.618237,-122.33389
REN DENNY CTR7,2014 Fairview Ave,47.618244,-122.33387
REN DENNY CTR8,2014 Fairview Ave,47.61824,-122.333855
525 NORTHGATE RETAIL #2,525 NE Northgate Way,47.707867,-122.321702
"BoA Queen Anne WA3-154 (Seattle, WA)",100 W MERCER ST,47.62482,-122.35829
Safeway 35th Ave NE,7340 35Th Ave Ne,47.682637521,-122.289884696
DC CORRIDOR ZOO OTTER L2-D1,601 N 59th St,47.670292,-122.353627
"Fred Meyer 179 (Seattle, WA)",13000 Lake City Way NE,47.72305,-122.29212
DC CORRIDOR SO SEA COL L2-B,6000 16th Ave SW,47.546287,-122.351925
Waterfront Place,1011 Western Avenue,47.6044756,-122.3378981
Starbucks Center Main Parking Lot,2401 Utah Avenue South,47.581142,-122.3357333
AMZ SEA42 - 4,2121 8th Ave,47.61669,-122.338985
AMZ SEA42 - 10,2121 8th Ave,47.616684,-122.33897
AMZ SEA42 - 2,2121 8th Ave,47.616712,-122.33907
AMZ SEA42 - 6,2121 8th Ave,47.616632,-122.338942
AMZ SEA42 - 5,2121 8th Ave,47.616654,-122.338888
AMZ SEA43 - 5,2250 7th Ave,47.61751,-122.340955
AMZ SEA43 - 2,2250 7th Ave,47.617453,-122.341014
AMZ SEA43 - 7,2250 7th Ave,47.61751,-122.34093
AMZ SEA43 - 6,2250 7th Ave,47.617528,-122.340928
AMZ SEA43 - 3,2250 7th Ave,47.617473,-122.340993
AMZ SEA43 - 1,2250 7th Ave,47.617429,-122.341037
AMZ SEA44 - 2,2205 7th Ave,47.617264,-122.340534
AMZ SEA44 - 3,2205 7th Ave,47.617287,-122.340505
AMZ SEA44 - 4,2205 7th Ave,47.617307,-122.340479
AMZ SEA44 - 1,2205 7th Ave,47.617228,-122.340588
AMZ SEA42 - 3,2121 8th Ave,47.616676,-122.338931
AMZ SEA25.26 3,550 Terry Ave N,47.623333,-122.336648
AMZ SEA42 - 8,2121 8th Ave,47.616684,-122.339013
AMZ SEA42 - 1,2121 8th Ave,47.61669,-122.338963
AMZ SEA24 02,500 Boren Ave N,47.623537,-122.335474
AMZ SEA20-22 001,440 Terry Ave N,47.622775,-122.336355
AMZ SEA20-22 002,440 Terry Ave N,47.622775,-122.336346
AMZ SEA20-22 004,440 Terry Ave N,47.623027,-122.3365
AMZ SEA20-22 003,440 Terry Ave N,47.623014,-122.336611
AMZ SEA27-28 P4 001,345 Boren Ave N,47.621746,-122.336402
AMZ SEA27-28 P4 002,345 Boren Ave N,47.621821,-122.33637
AMZ SEA27 28 P4 003,345 Boren Ave N,47.621851,-122.336423
AMZ SEA29 - 1,207 Boren Ave N,47.620496,-122.33622
AMZ SEA29 - 2,207 Boren Ave N,47.620275,-122.336253
AMZ SEA29 - 4,207 Boren Ave N,47.620392,-122.336265
AMZ SEA29 - 3,207 Boren Ave N,47.620267,-122.336259
AMZ SEA29 - 5,207 Boren Ave,47.62036,-122.336252
AMZ SEA23 P1 001,535 Terry Ave N,47.623967,-122.337695
AMZ SEA42 - 7,2121 8th Ave,47.61664,-122.338877
AMZ SEA42 - 9,2121 8th Ave,47.616677,-122.339024
The Corydon,"5101 25th Ave NE,",47.618848,-122.3467506
Alaska Junction SCL,4535 39th Ave SW,47.56223,-122.381761
INSIGNIA 953 144 145N,583 Battery St,47.606184,-122.332135
431602 : Kinects Tower - 1823 Minor Avenue,1823 Minor Avenue,47.6171782,-122.3313731
Queen Anne Square,200 West Mercer Street,47.6246042,-122.35931820000002
Washington State Convention Center Parking Garage,705 Pike ST,47.611378281765,-122.3314401402
University of Washington - Husky Stadium,3800 Montlake Blvd NE,47.648934,-122.302389
600NINTH 600NINTH,600 9th Ave,47.605888,-122.324733
AMZ SEA41 - 4,2121 7th Ave,47.616253,-122.340184
531616 - Marion & Minor Garage,1101 Madison Street,47.6091997,-122.3241094
450 Alaskan Garage,450 Alaskan Way,47.5987016,-122.3351902
BROADWAY BLDG STATION 1,1641 Nagle Pl,47.616001,-122.32028
"Port of Seattle, Fishermen\'s Terminal, West Wall BLDG",4005 20th Avenue West,47.65588110993,-122.38276327302
531613 - 1000-1100 Dexter Avenue N,1000 Dexter Avenue North,47.6283848,-122.3418983
Sidneysea LLC | Brazil,400 9th Avenue North,47.6228746,-122.3394194
505 First Garage,505 1st Avenue South,47.5974244,-122.3347174
1007 Stewart Street/ service decline,1007 Stewart Street,47.6163395,-122.3330877
"531603: 701 Pike Street (Seattle), LLC",701 Pike Street,47.6035183,-122.3329014
University of Washington - Parking Area S1,3500 Columbia Rd,47.650072,-122.310852
Tellus on Dexter Apartments,403 Dexter Ave N.,47.622505,-122.34279
University of Washington - Portage Bay Garage,3740 Brooklyn Ave NE,47.653047,-122.313915
University of Washington - Parking Area N2,4224 Memorial Way NE,47.658987,-122.309214
The Century Apartments - Retail Parking,101 Taylor Ave N,47.618918,-122.346874
The Century Apartments - Residential Parking,101 Taylor Ave N,47.619488,-122.346886
INSIGNIA 953 150 151N,583 Battery St,47.606202,-122.33208
KING COUNTY DES KC FAUNTLEROY2,4829 SW Barton St,47.523056,-122.395735
KING COUNTY DES KC AIRPORT 2,7259 King County Airport Access Rd,47.536812,-122.303923
AMZ SEA25.26 - 2,550 Terry Ave N,47.62334,-122.336589
AMZ SEA25.26 - 1,550 Terry Ave N,47.623336,-122.336584
AMZ SEA41 - 5,2121 7th Ave,47.616224,-122.340227
VBG Seattle,901 Fifth Ave,47.60578,-122.331858
HUB Garage,19235 International Boulevard,47.43001676,-122.2961501
AMZ SEA41 - 2,2121 7th Ave,47.616129,-122.340052
AMZ SEA41 - 6,2121 7th Ave,47.616231,-122.340205
AMZ SEA41 - 3,2121 7th Ave,47.616246,-122.340184
University of Washington - Parking Area W46,4317 12th Ave NE,47.660696,-122.315595
University of Washington - Parking Area N5,4324 Memorial Way NE,47.660311,-122.309086
University of Washington - Central Plaza Garage,4100 15th Ave NE,47.656832,-122.311626
Millennium Tower,719 Second Ave,47.6034418,-122.3339101
AMZ SEA43 - 4,2250 7th Ave,47.617495,-122.340974
5TH BELL SEA STATION2,2235 5th Ave,47.61588,-122.343138
Simon Northgate Mall,401 NE Northgate Way,47.70846,-122.32489
400 DEXTER AVE 400 DEXTER #2,400 Dexter Ave N,47.622329,-122.342153
SCH CURE P1 #5,1920 Terry Ave,47.617016,-122.33408
AMC Loews Oak Tree 6,10006 Aurora Ave N,47.7018765,-122.3430745
531604 : 600 Broadway,600 Broadway,47.6078691,-122.3196562
101 Elliott,101 Elliott Avenue West,47.619075,-122.359573
EUF GARAGE EUF STATION 2,300 1st Ave W,47.621304,-122.357684
PRISM STATIONS PRISM STATION 1,10711 8th Ave NE,47.706948,-122.320856
The Lyric,215 10th Avenue East,47.6206301,-122.3198568
PRISM STATIONS PRISM STATION 2,10711 8th Ave NE,47.706929,-122.320888
The Terminal at Ballard,907 Nw Ballard Way,47.662307,-122.3697155
Broadway Market,401 Broadway E,47.622517,-122.321407
PIKE PLACE STALL #895 #894,1901 Western Ave,47.609487,-122.342908
2600 Elliott Garage,2600 Elliott Avenue,47.614387,-122.35162200000002
Northgate Mall - Tesla Supercharger,401 NE Northgate Way,47.706589,-122.327778
525 NORTHGATE RESIDENTIAL #1,525 NE Northgate Way,47.707814,-122.321637
525 NORTHGATE RESIDENTIAL #2,525 NE Northgate Way,47.70779,-122.321726
MADISON GARAGE MADISON GARAGE1,1229 Madison St,47.61008,-122.322151
Safeway 7300 Roosevelt Way Ne,7300 Roosevelt Way Ne,47.6825805,-122.317165
Stadium Place,520 Occidental Avenue South,47.5977415,-122.3329233
BMGF BMGF EV 08,500 5th Ave N,47.623224,-122.345917
818 Stewart Street Holdco LLC,818 Stewart Street,47.6156458,-122.3350555
Hill 7 Station,1099 Stewart Street,47.6164918,-122.3324879
Madison Miller,2113 E Olive St,47.616915,-122.303963
Tilt49 Realty LLC,1812 Boren Avenue,47.6170248,-122.3322181
531628 : 2201 Westlake,2201 Westlake Avenue,47.618090056138,-122.33892002021
Troy Block,300 Boren Avenue North,47.6211672,-122.3354501
531622 : 818 Stewart Street Holdco LLC,818 Stewart Street,47.6156458,-122.3350555
531620 : Centre 425/Everest,501 Fairview Avenue North,47.6233435,-122.334684
The Commons at Ballard,"5621 22nd Avenue, NW",47.6699634,-122.3847489
"Walgreens - Seattle, WA #4157",859 NE Northgate Way,47.7084377,-122.3179225
VM CHARGERS VIRGINIA MASON3,1012 Terry Ave,47.609553,-122.326337
Array Apartments,14027 Lake City Way NE,47.731273,-122.293062
5TH BELL SEA STATION1,2235 5th Ave,47.615891,-122.343135
DC CORRIDOR SCC GTOWN L2-1,6701 Corson Ave S,47.542276,-122.324533
VM CHARGERS VIRGINIA MASON1,1012 Terry Ave,47.609501,-122.326457
KW RADIUS RADIUS 1,400 Boren Ave N,47.622575,-122.335481
BMGF BMGF EV 06,500 5th Ave N,47.623302,-122.345789
BMGF BMGF EV 03,500 5th Ave N,47.623345,-122.345853
BMGF BMGF EV 05,500 5th Ave N,47.623274,-122.345984
BMGF BMGF EV 04,500 5th Ave N,47.623307,-122.345933
DC CORRIDOR SCC GTOWN L2-2,6701 Corson Ave S,47.542318,-122.32446
"Madison Pike WA3-141 ( Seattle, WA)",1300 E MADISON ST,47.61388,-122.31477
DC CORRIDOR SO SEA COL L2-A,6000 16th Ave SW,47.546291,-122.351988
Klee Condominiums,2717 Western Avenue,47.6153062,-122.3521142
INSIGNIA 953 97 98,588 Bell St,47.616729,-122.342786
Pike Place Market,1901 Western Avenue,47.6091582,-122.3418441
Second and Seneca Tower,1191 2nd Avenue,47.6060061,-122.336716
1201 Third,"1201 Third Avenue
Suite 520",47.6072826,-122.3360929
Shelburne Inn Restaurant & Pub - Tesla Destination,4415 Pacific Way,46.3348553,-124.0550737
CANYON CLIFFS STATION 2,200 Canyon Pkwy,46.652275,-120.54048
CANYON CLIFFS STATION 1,200 Canyon Pkwy,46.65216,-120.54041
CANYON CLIFFS STATION 7,200 Canyon Pkwy,46.652264,-120.53995
CANYON CLIFFS STATION 6,200 Canyon Pkwy,46.65222,-120.540146
CANYON CLIFFS STATION 3,200 Canyon Pkwy,46.653072,-120.539856
CANYON CLIFFS STATION 4,200 Canyon Pkwy,46.652767,-120.5399
CANYON CLIFFS STATION 5,200 Canyon Pkwy,46.652363,-120.53998
Nikola Broadband,615 N 5th Ave,48.08536,-123.1135
GreenHouse Inn by the Bay - Tesla Destination,630 Marine Dr,48.149618,-123.153648
Lost Mountain Lodge - Tesla Destination,303 Sunny View Dr,48.06217,-123.168319
The Co-op Farm and Garden,216 E Washington St,48.079897,-123.098996
Safeway 680f West Washington,680f West Washington,48.080594,-123.117292
Holiday Inn Express & Suites - Tesla Supercharger,1441 E Washington Street,48.071064,-123.074581
Sequim City/ Clallam PUD,150 N. Govan Ave,48.079887824216,-123.09749698672
Mason County PUD,21971 N. Highway 101,47.374141,-123.155375
The Ridge Motorsports Park - Tesla Destination,1060 W. Eells Hill Rd,47.254252,-123.197171
Little Creek Casino Resort - Tesla Destination,93 WA-108,47.12836,-123.10355
Lucky Dog Casino,19330 US Hwy 101,47.337269,-123.160611
Olympic College Shelton,937 W. Alpine Way,47.2297155,-123.1108409
"Walgreens - Shoreline, WA #3788",14510 Aurora Ave N,47.7348902,-122.3445775
West Parking Lot,16101 Greenwood Avenue North,47.7486311,-122.3594244
Visitors Parking Lot,16101 Greenwood Avenue North,47.7486311,-122.3594244
Geo Apartments,17990 Midvale Avenue North,47.7592911,-122.3448427
Safeway 17202 15th Ave NE,17202 15th Avenue Northeast,47.75472,-122.312805
SWD STATION  1 NORTH CITY #1,1519 NE 177th St,47.756896,-122.312344
St. Michael Medical Center - East Garage,1800 NW Myhre Rd,47.65654521,-122.6737546
Kitsap Mall Dick's Sporting Goods,10315 Silverdale Way Nw,47.6569805,-122.692128
St. Michael Medical Center - Pavilion Garage,1950 Myhre Rd,47.6583744,-122.6760529
Kitsap Mall Kohl's,10315 Silverdale Way Nw,47.658828,-122.6887895
Haselwood Family YMCA Silverdale,3909 NW Randall Way,47.652505,-122.694367
STEVENS PASS SPMR DUAL #1,Stevens Pass Mountain Resort  Skykomish Washi,47.746482,-121.090001
Skykomish - Sky Deli,148 5th Street N,47.7114,-121.36073
STEVENS PASS SPMR DUAL #2,Stevens Pass Mountain Resort,47.746319,-121.089984
KOZ WEAVER WEAVER RD MIDDL,1925 Weaver Rd,47.938226,-122.108766
KOZ WEAVER WEAVER RD RIGHT,1925 Weaver Rd,47.938312,-122.109156
Lakeview Place,1119 13th Street,47.926042415,-122.09600399
KOZ WEAVER WEAVER RD LEFT,1900 Weaver Rd,47.938215,-122.109075
First St Station,1513 1st Street,47.9120626,-122.1014074
Safeway 17520 SR 9 SE,17520 SR 9 SE,47.838905,-122.124795
Snoqualmie Casino - Tesla Destination,37500 SE N Bend Wy,47.51865,-121.841773
SNOQUALMIE CITY CITY HALL,8161 Maple Ave SE,47.52717,-121.82621
SNOQUALMIE CITY COMMUNITY LOT,35016 SE Ridge St,47.532721,-121.873105
SNOQUALMIE CITY FALLS AVE,8125 Falls Ave SE,47.527683,-121.8237
Silver Fir Lodge,80 Tanner Way,47.401691,-121.407058
Snoqualmie - Snoqualmie Pass Chevron,519 SR 906,47.42253,-121.41252
Smokiam Park,334 Daisy St N,47.39125,-119.483647
1810 N Greene S Bldg 27,1810 N Greene S,47.673872,-117.35623
Lithia Camp Chevrolet,101 E Montgomery Ave,47.6791780046368,-117.409162927993
SCAFCO,2800 E Main Ave,47.659232,-117.368859
Wandermere,438 E Hasting Rd.,47.768906,-117.401929
Hilton Garden Inn Spokane Airport - Tesla Destination,9015 W Hwy 2,47.642631,-117.537533
201 W North River Dr Garage,201 W North River Dr,47.6635639825081,-117.413773924025
European Autohaus,6510 W THORPE RD,47.614336,-117.503088
Scott Morris Center,611 E Sprague Ave,47.6576629583616,-117.401612930819
COLLEGE HALL PARKING GARAGE,821 E Boone Ave,47.668201,-117.397214
Avista Corp,1411 E Mission Ave,47.673347,-117.388933
SpringHill Suites by Marriott - Tesla Destination,8967 W Airport Dr,47.6268814476275,-117.537588234816
BWP EV CHARGER SPOKANE EV 1,9601 N Newport Hwy,47.745333,-117.407863
COLLEGE HALL MUSIC HALL,302 E Boone Ave,47.668051,-117.4063
803 N Post St Parking,803 N Post St,47.6649707611323,-117.424154919314
SIA W GARAGE F.1 #4,9000 W Airport Dr.,47.62497,-117.539743
SIA W GARAGE F.1 #7,9000 W Airport Dr.,47.625057,-117.53991
SIA E OUTSIDE LOT2A,8967 W Airport Dr,47.626199,-117.537711
SIA ECO 3,W McFarlane rd,47.630363,-117.538616
SIA W GARAGE F.1 #5,9000 W Airport Dr.,47.624986,-117.539808
Wingate By Wyndham Spokane,2726 S Flint Rd,47.629619,-117.535903
SIA W GARAGE F.1 #3,9000 W Airport Dr.,47.625019,-117.539665
SIA W GARAGE F.1 #6,9000 W Airport Dr.,47.625024,-117.539864
SIA E OUTSIDE LOT 1,8967 W Airport Dr,47.626233,-117.537649
SIA E OUTSIDE LOT2B,8967 W Airport Dr,47.626154,-117.537759
SFCC,3410 W Fort George Wright Dr,47.675247,-117.464446
Steam Plant Parking,130 S Post St,47.65579218,-117.4236637
Kendall Yards,500 N Cedar St,47.662679,-117.431811
COLLEGE HALL CROSBY HOUSE,508 E Sharp Ave,47.669317,-117.402327
STCU Valley,13211 E 32nd Ave,47.628186,-117.227256
SIA W GARAGE F.1 #2,9000 W Airport Dr.,47.625059,-117.539598
WSECU N.DIVISION #01,6301 N. Division St.,47.71535,-117.412094
AgWest Farm Credit,2001 Flint Rd,47.636747291571,-117.538139100635
Parkade Plaza Parking Garage,511 W Main Ave St,47.6589127666411,-117.420004142045
Holy Family Hospital Employee,5633 N Lidgerwood St,47.709683,-117.407065
TA Petro - Tesla Supercharger,10506 West Aero Road,47.591,-117.56193
Pinecroft Rivers Edge,12939 E Pinecroft way,47.68768,-117.22993
Spokane Club Hotel,1002 W Riverside Ave,47.659207793755,-117.427341208809
Summit Medical Center,546 N Jefferson St,47.6628381439015,-117.429561558108
The Davenport Tower - Tesla Destination,111 Post St,47.656306,-117.423487
4DEGREES STATION 1,1309 W. First Avenue,47.65593,-117.43163
The Davenport Hotel - Tesla Destination,10 S Post St,47.656578,-117.424414
Kendall Yards,1354 W. Bridge Ave.,47.662926,-117.431874
Spokane Public Library - Central,906 W Main Ave,47.6596979865922,-117.425382878579
Indian Trail Library,4909 W. Barnes Rd,47.740406,-117.482601
North Spokane Library,44 E. Hawthorne Rd.,47.750782,-117.409002
SPO-EV SPO-EV 1,115 W North River Dr,47.66367,-117.412254
SPO-EV SPO-EV 2,115 W North River Dr,47.66371,-117.412254
Huckleberry's Natural Market,926 S Monroe St,47.6464283735088,-117.426683514568
Washington Trust Bank,3103 S Grand Blvd,47.625993076023,-117.401065286262
NOMNOM 62139 WEST,8926 East Bigelow Gulch Road,47.721642,-117.283681
Riverton Copper Basin,1601 E Mission Ave,47.672004,-117.386224
Wendle Nissan,9000 N Division St,47.739021,-117.409937
Goodwill Industries Outlet Store,9837 W Flight Dr,47.6405748972829,-117.550308583482
Moran Prairie Library,6004 S. Regal St,47.599475,-117.369543
Oxford Suites Spokane - Tesla Destination,115 W North River Dr,47.663559,-117.412422
SIA W GARAGE F.1 #1,9000 W Airport Dr,47.625092,-117.53956
LHM HONDA STATION 01,1208 W 3rd Ave,47.653614,-117.430179
SIA ECO 1,W McFarlane Rd,47.630409,-117.538666
Rock Pointe,1330 N. Washington St,47.669621,-117.416241
SIA ECO 2,W McFarlane Rd,47.630319,-117.538566
SpringHill Suites by Marriott,8967 W Airport Dr,47.6268814476275,-117.537588234816
Washington State Department of Ecology - Public Parking Lot,4601 N Monroe St,47.700624,-117.425573
8701 N Division St,8701 N Division St,47.736838,-117.411732
North East Community Center,4001 N. Cook St,47.693653,-117.374808
The Hotel Lusso - Tesla Destination,808 W Sprague Ave,47.657247,-117.423946
SIA CELL LOT,8909 W Airport Dr,47.630989,-117.540534
Spokane City Credit Union,1930 N Monroe St,47.675571,-117.426269
The Davenport Grand Hotel - Tesla Destination,333 W Spokane Falls Blvd,47.659917,-117.417273
DoubleTree by Hilton Spokane City Center - Tesla Destination,322 N Spokane Falls Ct,47.66075,-117.414533
Hampton Inn Airport Spokane - Tesla Destination,2010 S Assembly Rd,47.63666,-117.477532
The Hive,2904 E. Sprague,47.657077,-117.368054
STA West Plains,10810 W. Westbow Road,47.590129,-117.565574
Oxford Suites Spokane Valley - Tesla Destination,15015 E Indiana Ave,47.673676,-117.201827
14700 East Indiana Avenue (US-Q8C-L5K-1B),14700 East Indiana Avenue,47.6743353,-117.2045108
Dave Smith Nissan - Spokane,6901 E Sprague Ave,47.657264,-117.312518
14700 East Indiana Avenue (US-Q8C-L5K-2C),14700 East Indiana Avenue,47.6742739,-117.20461
SUL-EV SUL-EV1,15015 E Indiana Ave,47.673595,-117.20218
14700 East Indiana Avenue (US-Q8C-L5K-2B),14700 East Indiana Avenue,47.6743267,-117.2045772
14700 East Indiana Avenue (US-Q8C-L5K-2A),14700 East Indiana Avenue,47.6743272,-117.2045561
14700 East Indiana Avenue (US-Q8C-L5K-1C),14700 East Indiana Avenue,47.6743405,-117.2045349
"Walmart 2539 - Spokane Valley, WA",15727 E Broadway Ave,47.6656,-117.19012
14700 East Indiana Avenue (US-Q8C-L5K-1A),14700 East Indiana Avenue,47.6743486,-117.2044944
Bella Tess Apartments,17016 E Indiana Pkwy.,47.670893,-117.176698
Montgomery East Commercial Center - Tesla Destination,11616 E Montgomery Dr,47.677124,-117.249314
Leasing office Parking lot,16621 E. Indiana Ave.,47.670337,-117.1812368
Big B Truck Stop - Tesla Supercharger,2008  Durry Road,47.209058,-118.22567
Sprague,105 W. 1st St,47.300047,-117.978322
1st St Parking Lot,105 W 1st St,47.3001237950386,-117.976062919428
"Walgreens 2100 NE 139TH ST, VANCOUVER",2100 Ne 139Th,45.7222565,-122.6509065
Covered space,26031 72nd Ave. NW,48.2325756,-122.3291167
Skamania Lodge - Tesla Destination,1131 Skamania Lodge Way,45.6856217,-121.9052444
Sultan - Sultan Visitor Information Center,320 Main St,47.86215,-121.81659
The Main Apartments,15367 Main Street E,47.2029039,-122.224457
Sumner School District - Parking Lot,1099 Wood Ave,47.203981,-122.237313
WinCo Foods - Sumner #74,6621 Wahl Rd East,47.196706,-122.206916
SS Central Park,559 South 4th Street,46.3227794,-120.015553
Sunnyside High School,1831 East Edison Avenue,46.323285894252,-119.99395804467
Masi Shop,15347 Suquamish Way Northeast,47.707803471,-122.58338748
Clearwater Casino 01 - 04,15347 Suquamish Way Northeast,47.713073982,-122.569902338
Tacoma Mall,4502 S Steele St,47.21543,-122.47068
1500 Orchard Street Apartments,1502 S Orchard Street,47.2469268,-122.5062726
S 39th Street,S 39th Street,47.221823,-122.443032
"3629 South D Street, Tacoma",3629 South D Street,47.224977,-122.435165
The Lex,415 St Helens Ave,47.2600301,-122.4438042
799 E Harrison Street,799 Harrison Street,47.2294673,-122.420899
Portland Ave and 31st St,1606 E 31st St,47.234632,-122.409949
TPS FACILITIES TPS FAWCETT 1,201 E 61st St,47.202106,-122.428907
ENV SERVICES R & T CENTER 01,3510 S Mullen St SWM Admin Bldg,47.228029,-122.499407
PACIFIC LUTH U STATION 1,512 122nd St S,47.145087,-122.438886
531609 : Pierce County Annex,2401 South 35th Street,47.228303734615,-122.46755358955
TAC PW PARKING CONV CTR 02,1552 Market St,47.247112,-122.43998
Tacoma Nissan,4030 S Tacoma Way,47.21978,-122.48576
ENV SERVICES R & T CENTER 02,3510 S Mullen St SWM Admin Bldg,47.227967,-122.499375
ENV SERVICES URBAN WATERS 03,"303 East D St East Pkg Lot, Center for Urban",47.259505,-122.433772
ENV SERVICES URBAN WATERS 02,326 East D St Center for Urban Waters - Main,47.2593,-122.43424
TAC PW PARKING CONV CTR 04,1548 Commerce St,47.247723,-122.438
TACOMA PARKS LES DAVIS #2,3427 Ruston Way,47.282993,-122.48233
TACOMA PARKS STAR CENTER #1,3873 S 66th St,47.198314,-122.489257
S 54th and Pacific Ave,S 54th and Pacific Ave,47.208167,-122.4343
Central WW Treatment Plant,2201 Portland Avenue East,47.2478256,-122.4141119
TPU HQ#5,3418 S Washington St,47.228587,-122.484155
124 N Tacoma Avenue,124 N Tacoma Avenue,47.2652015,-122.4496292
STA II #1,17404 44th Avenue East,47.0987868,-122.374551
TAC PW PARKING CONV CTR 01,1552 Market St,47.24716,-122.440056
ENV SERVICES URBAN WATERS 04,"303 East D St SE Pkg Lot, Center for Urban Wa",47.25953,-122.4337
Evergreen Shopping Center - Tesla Supercharger,5219  Tacoma Mall Boulevard,47.209605,-122.462678
TAC PW PARKING CONV CTR 03,1548 Commerce St,47.247578,-122.4388
"Walmart 4137 - Tacoma, WA",1965 S Union Ave.,47.23947,-122.48025
TAC PW FAC MGT FIRE STN 05 01,3520 East 11th St Fire Station 05,47.275715,-122.396176
McCarver,2147 Martin Luther King Jr Way,47.24015768,-122.4484477
LeMay-America's Car Museum,2702 E D St,47.234898,-122.429536
Brewery Lofts EVC.,2150 Commerce Street #200,47.242139,-122.437121
TAC PW PARKING PARK PLAZA 02,923 Commerce St,47.254591,-122.439294
"Walgreens - Tacoma, WA #7356",3540 N Pearl St,47.281263,-122.516582
S 84th St and S Park Avenue,8402 S Park Ave,47.18093,-122.44228
Blue Lot,"712 Nollmeyer Lane, Tacoma, WA",47.2535492,-122.4469825
COMMUNITY HOUSE COMMUNITY #1,1314 South L St,47.248875,-122.45322
Buckingham Apartments,1001 N Yakima Ave,47.26726,-122.46208
Safeway Tacoma,1112 S M St,47.250837,-122.455311
TAC PW PARKING GLASS MUSEUM 01,1801 Dock St,47.245934,-122.43398
COMMUNITY HOUSE COMMUNITY #2,1314 S L St,47.24889,-122.453156
TAC PW PARKING A ST GARAGE 01,110 S 10th St,47.253809,-122.437429
COMMUNITY HOUSE COMMUNITY #3,1314 S L St,47.248898,-122.453094
CP RETAIL CUSTPK,7815 S Tacoma Way,47.185951,-122.482651
5112 N Pearl Street,5112 N Pearl,47.298756,-122.515766
601 N Rochester Street,601 N Rochester Street,47.255696,-122.5292482
ENV SERVICES URBAN WATERS 05,"303 East D St SE Pkg Lot, Center for Urban Wa",47.259555,-122.433611
Summit Veterinary Referral,2505 S. 80th Street,47.1851726,-122.4705984
TPU HQ #2,3418 S Washington St,47.228591,-122.483943
TPS FACILITIES BROWNS POINT #3,1526 51st St NE,47.302692,-122.424934
PACIFIC LUTH U STATION 3,508 122nd St S,47.145098,-122.438741
3851 Center Street,3851 Center Street,47.231325,-122.4876
Best Western Plus Tacoma Dome Hotel - Tesla Destination,2611 East E St,47.23853,-122.427213
TPU OLD TOWN #1,2222 N 30th St,47.274538,-122.466743
TPS FACILITIES HUNT MIDDLE,6501 S 10th St,47.252148,-122.5242
TPS FACILITIES BROWNS POINTE 2,1526 51st St NE,47.30283,-122.424971
TPU HQ #8,3408 S Union Ave,47.228589,-122.484377
Best Western Plus - Tacoma Dome Hotel,2611 East E St,47.238785,-122.426722
3803 N 26th Street,3803 N 26th Street,47.271112,-122.487932
McLendon Hardware Tacoma,1015 N Pearl St,47.25914,-122.514596
Brewery Block TAC,2139 Commerce Street,47.2423503,-122.4367763
TPU HQ #3,3418 S Washington Ave,47.228591,-122.484015
2350 N 30th St,2350 N 30th St,47.274697,-122.468095
TPU OLD TOWN #2,2222 N 30th St,47.274639,-122.466744
TPU HQ #4,3418 S Washington St,47.228587,-122.484083
TPU HQ #6,3418 S Washington St,47.228593,-122.484226
Tacoma Recovery and Transfer Center,3510 South Mullen Street,47.228027560556,-122.49931810475
VISITOR GARAGE PEDESTAL UNIT,1201 Pacific Ave,47.252117,-122.437452
PACIFIC LUTH U STATION 2,512 122nd St S,47.145084,-122.438862
TPU HQ #1,3418 S Washington St,47.228591,-122.483871
Yakima Garage,910 N Yakima Ave,47.253443770016,-122.44818772393
TACOMA PARKS PARKS HQ,4702 S 19th St,47.242541,-122.499508
26th and C Street,301 E 26th St,47.2386767566705,-122.430340659049
TPU HQ #7,3628 S 35th St,47.228592,-122.484299
City of Tacoma - Center for Urban Waters,326 E D St,47.25927995829793,-122.43429270240784
City of Tacoma - Solid Waste Management,3510 S Mullen St,47.22813861226714,-122.4991558918571
Tacoma South,7921 S Hosmer St,47.186179,-122.462768
531608 : UW Tacoma C17 Garage,1717 Market Street,47.2464713,-122.4396442
Point Ruston - Main Street,5005 Main Street,47.298158744057,-122.50341835087
3102 6th Avenue,3102 6th Avenue,47.2551169,-122.4766114
531617 : Court C Parking Level - Charging Stations,1149 Market Street,47.2515929,-122.4407988
TAC PW PARKING PACIFIC PLAZA,1301 Pacific Ave,47.251655,-122.437656
VISITOR GARAGE WALL UNIT,1201 Pacific Ave,47.252059,-122.437484
Safeway 1302 S 38th,1302 South 38th Street,47.222542058,-122.451572702
Safeway 2411 North Proctor,2411 North Proctor,47.269919942,-122.488110764
TPS FACILITIES TPS FAWCETT 2,201 E 61st St,47.202015,-122.42894
Westgate North,2637 North Pearl Street,47.272625257,-122.514344349
Tacoma Power Lot D EV Charging,3628 S 35th St,47.228157,-122.485043
City of Tonasket - City Hall,209 N Whitcomb,48.705586,-119.438406
YAKAMART INC. STATION 1,111 Fort Rd,46.375435,-120.33262
Hotel Interurban - Tesla Destination,223 Andover Park E,47.457152,-122.251628
KING COUNTY DES TUKWILA 1,7301 Longacres Way,47.460055,-122.240989
"Target T0627 - Tukwila, WA",301 Strander Blvd.,47.45571,-122.25738
TRU TUKWILA TUKWILA 1,395 Corporate Dr S,47.449352,-122.254496
The Museum of Flight Foundation,9409 East Marginal Way South,47.51766862379205,-122.29721987976122
Westfield Southcenter 04,500 Southcenter Mall,47.460023,-122.25938
Airmark Apartments/Hotel Interurban,229 Andover Park East,47.4570519,-122.2506784
ELEMENT TUKWILA STATION 2,515 Industry Dr,47.453215,-122.249421
ELEMENT TUKWILA STATION 1,515 Industry Dr,47.453253,-122.24899
Mariblu Southcenter,411 Baker Blvd,47.4577042,-122.2511413
FORT DENT STATION EV 2,6700 Fort Dent Way,47.46639,-122.249479
Southcenter Plaza - Tesla Supercharger,333 Strander Boulevard,47.455407,-122.256023
"Walgreens at 3716 S 144th St, Tukwila",3716 S 144Th St,47.474492,-122.2856685
KING COUNTY DES TUKWILA 2,7301 Longacres Way,47.460005,-122.24099
Tukwila,13050 Interurban Ave So.,47.485346,-122.27222
Section 8 Office,700 Andover Park West,47.44897,-122.25331
Westfield Southcenter Mall,500 Southcenter Mall,47.459966333,-122.259123333
Seattle Premium Outlets,10600 Quil Ceda Blvd.,48.09546,-122.1869
DONNA'S STATION 3,3104 116th St NE,48.099464,-122.188407
DONNA'S STATION 4,3104 116th St NE,48.099464,-122.188429
DONNA'S STATION 1,3104 116th St NE,48.099457,-122.188461
DONNA'S STATION 2,3104 116th St NE,48.099457,-122.188418
Thurston County Juvenile Court,1520 Irving St SW,47.023179,-122.922337
Tumwater City Hall,555 Israel Road SW,46.9847271,-122.9116758
Pilot Travel Center - Tesla Supercharger,2430 93rd Avenue Southwest,46.952938,-122.935249
Safeway 500 Cleveland,500 Cleveland,47.018706,-122.8976885
Tumwater - Shell Station & Deli Mart,6131 Capital Blvd SW,46.99366,-122.90824
TwispWorks,503 S Glover St,48.362102,-120.121376
Alderbrook Resort & Spa - Tesla Destination,10 E Alderbrook Dr,47.3471843,-123.0676404
"Walgreens - University Place, WA #3723",7451 Crique Dr W,47.2136054,-122.5366188
CPU EC 1,1200 Fort Vancouver Way Southside Public Park,45.629438,-122.663319
Heathman Lodge - Tesla Destination,7801 NE Greenwood Dr,45.653804,-122.591975
HOTEL INDIGO B1: LEFT,565 W Columbia Way,45.623505,-122.677765
HOTEL INDIGO B1: RIGHT,550 Waterfront Way,45.623493,-122.677765
East Campus Building,301 Grove Street,45.6221234,-122.6370287
"Vancouver, WA - Northeast Fourth Plain Boulevard - Tesla Supercharger",6916 NE Fourth Plain Blvd,45.645638,-122.601482
JEEP EV DICKHANNAHJEEP1,3517 NE Auto Mall Dr,45.647766,-122.59692
"Walgreens - Vancouver, WA #10141",2903 NE Andersen Rd,45.643374,-122.600102
JEEP EV DICKHANNAHJEEP2,3517 NE Auto Mall Dr,45.647742,-122.596928
BWP VANCOUVER FISHERS LANDING,1500 SE 167th Ave,45.609302,-122.500484
AG STATION STATION 2,8608 NE 54th St,45.66201,-122.584186
Alan Webb Nissan,3608 NE Auto Mall Dr,45.648094,-122.597954
AG STATION STATION 1,8778 NE 54th St,45.662011,-122.584106
Aeon Apartments,1119 C Street,45.6299198,-122.6684897
"Walgreens - Vancouver, WA #7226",9714 NE Mill Plain Blvd,45.621549,-122.572604
Mercy 1Transport,5406 NE 107th Avenue,45.661573,-122.5636326
Vancouver Mall Ulta,8700 Ne Vancouver Mall Dr,45.6573855,-122.5847915
PeaceHealth,1115 SE 164th Ave,45.63017,-122.504
JEEP EV DICKHANNAJEEP3,3517 NE Auto Mall Dr,45.647721,-122.596933
Vancouver Mall North Entrance,8700 Ne Vancouver Mall Dr,45.658859,-122.5835005
CPU OPS 2,"8600 NE 117TH AVE,",45.684954,-122.553369
KOHL'S - CHPT 1003 VANCOUVE 2,17001 SE Mill Plain Blvd,45.61618,-122.497689
Columbia Center Building,1115 SE 164th Avenue,45.613275,-122.50409
COEN NORTH STATION #2,815 COLUMBIA ST,45.627364,-122.673345
Comfort Inn & Suites  - 401 East,401 East 13th Street,45.6304919,-122.6676833
"Walmart 5462 - Vancouver, WA",430 SE 192nd Ave.,45.61776,-122.47814
COEN NORTH STATION #3,815 Columbia Street,45.627365,-122.67312
CPU EC 3 ADA,1200 Fort Vancouver Way Covered Walkway Parki,45.630036,-122.663442
CPU OPS 1,8600 NE 117th Ave,45.684915,-122.55342
Vancouver Mall Southeast,8700 Ne Vancouver Mall Dr,45.657705,-122.581873
CPU DC STATION 2,850 Officers Row,45.629428,-122.663273
"Walgreens 13503 SE MILL PLAIN,  VANCOUVER",13503 Se Mill Plain,45.6178815,-122.5332135
CPU DC STATION 1,850 Officers Row,45.629395,-122.663203
Hampton Inn & Suites Portland/Vancouver,315 SE Olympia Dr,45.618949,-122.525453
Vancouver Mall - Tesla Supercharger,8700 NE Vancouver Mall Drive,45.659583,-122.583536
"Cafaro VANCOUVER PLAZA (Vancouver, WA)",7809 NE Vancouver Plaza Dr,45.64992,-122.59341
University Village,2723 Northeast 134th Street,45.716144166102126,-122.64233632208956
Legacy Salmon Creek Hospital,2211 Northeast 139th Street,45.7208083,-122.6467578
HAAGEN HAAGEN 2,1501 NE 131st Ave,45.633264,-122.536477
Fred Meyer Salmon Creek - Tesla Supercharger,800 NE Tenney Road,45.721613,-122.663762
HAAGEN HAAGEN 1,1318 NE 136th Ave,45.631806,-122.535112
Walmart 2947 Vancouver,9000 NE HIGHWAY 99,45.68739,-122.66091
431004 : The Reserve at CTC,600 Southeast 177th Avenue,45.6183882,-122.4917385
PeaceHealth Parking Lot E,Patient/Visitor Lot,45.625546157476,-122.58179668033
KOHL'S - CHPT 1003 VANCOUVE 1,17001 SE Mill Plain Blvd,45.616174,-122.497721
Clark County - Public Service Center (1st Floor),1300 Franklin Street,45.6313841,-122.677588
COEN NORTH STATION #1,815 Columbia St,45.627361,-122.673261
CPU EC 2,1200 Fort Vancouver Way Southside Public Park,45.62946,-122.663366
VUMC 1 VUMC 1,17928 Vashon Hwy SW,47.444149,-122.460142
VASHON TWAY THRIFTWAY #1,9740 SW Bank Rd,47.448013,-122.45897
Legacy Villa,21900 E Country,47.667043,-117.110447
City of Waitsburg,128 Coppei Avenue,46.2707488,-118.1532507
Columbia REA,2929 Melrose St.,46.0810314831552,-118.284392504903
Pepper Bridge Winery - Tesla Destination,1704 J.B. George Rd,47.734002,-122.141347
Dunham Wine Cellars - Tesla Destination,150 E Boeing,46.0890194,-118.2782343
Whitman College,147 South Park Street,46.0705799,-118.3306351
Marcus Whitman Hotel - Tesla Destination,6 W Rose St,46.0679132,-118.3408991
The Walls Vineyards - Tesla Destination,1015  W Pine St,46.06881,-118.35589
A Room With a View - Tesla Destination,28 Roland Ct,46.022244,-118.410638
O'Brien Nissan,1395 Dalles Military Rd,46.047464,-118.353406
Hampton Inn and Suites,1531 Kelly Place,46.0459904,-118.3568298
Whitman College - Tesla Destination,345 Boyer Ave,46.0684299,-118.3302973
Inn at Abeja - Tesla Destination,2014 Mill Creek Rd,46.088478,-118.227154
La Quinta Inn & Suites Walla Walla - Tesla Destination,776 Silverstone Dr,46.067886,-118.370851
Doubleback Winery - Tesla Destination,3853 Powerline Rd,46.014123,-118.310165
Walla Walla Community College - Automotive Technology Center,3060 E Isaacs Ave,46.0805102792022,-118.281170868322
Amavi Cellars - Tesla Destination,3796 Peppers Bridge Rd,46.016223,-118.38607
Water & Environmental Center,640 Water Center Dr,46.0781030999106,-118.273813752914
Corvus Cellars - Tesla Destination,760 C St,46.092016,-118.271808
Columbia REA,2929 Melrose St.,46.0810314831552,-118.284392504903
WDVA WWVH1,92 Wainwright Dr,46.053183,-118.354086
Providence St. Mary Medical Center - Walla Walla,401 W Poplar St,46.062597,-118.34231
CAPRIO CELLARS STATION 1,1615 Whiteley Rd,46.011032,-118.36136
WOLF DEN 76 STATION 2 DC,61 W Wapato Rd,46.448538,-120.430957
WOLF DEN 76 STATION 1,61 W Wapato Rd,46.448508,-120.43099
Freehand Cellars - Tesla Destination,420 Windy Point Dr,46.495156,-120.4206332
PORTCW BLDG 20 #4,4035 Grant St,45.562567,-122.325966
NINEBARK 141/142,600 S Marina Way,45.578612,-122.369966
PORTCW BLDG 20 #1,4035 Grant St,45.56304,-122.325634
NINEBARK 223/224,600 S Marina Way,45.578614,-122.37
NINEBARK 239,600 S Marina Way,45.578607,-122.370007
NINEBARK 229/230,600 S Marina Way,45.578611,-122.369998
NINEBARK 177,600 S Marina Way,45.578601,-122.369971
PORTCW BLDG 20 #2,4035 Grant St,45.563002,-122.325741
NINEBARK 157/158,600 S Marina Way,45.578597,-122.369998
PORTCW BLDG 20 #5,4035 Grant St,45.562907,-122.325816
PORTCW BLDG 20 #3,4035 Grant St,45.56304,-122.32558
PORTCW PORTCWADMIN,98 S A St,45.578726,-122.379886
PORTCW BLDG 20 #6,4035 Grant St,45.562604,-122.326084
Highway 2 Brew Espresso,215 N Chelan Ave,47.649002,-120.070865
Chelan County Public Utility District,327 N Wenatchee Ave,47.429582,-120.315228
Pybus Public Market,7 N Worthen St,47.425375,-120.307608
Wenatchee - Wenatchee Convention Center,200 N Columbia St,47.42745,-120.31242
Cascade Chevrolet,148 Easy St,47.467463,-120.336918
Walla Walla Park,River Park Ave E,47.442921,-120.316235
Dry Gulch Trailhead,Dry Gulch Rd,47.39664792360551,-120.32983635714724
Rocky Reach Dam Visitor Center,6151 US 97 Alternate,47.531819,-120.300871
WADOC WVRC,615 Kittitas St,47.417516,-120.314461
Confluence Technology Center,285 Technology Center Way,47.463409,-120.331529
Warm Springs Inn & Winery - Tesla Destination,1611 Love Ln,47.476001,-120.376514
Confluence Health - Central Washington Hospital Parking Garage,1201 S Miller St,47.407649,-120.323973
Confluence Health - Central Washington Hospital,933 Red Apple Rd,47.406469,-120.322576
Confluence Health - Mares Building,820 N Chelan Ave,47.432978,-120.322963
WADOC WVRC 2,400 Okanogan Ave,47.417583,-120.314597
Wenatchee Convention Center,121 N Wenatchee Ave,47.427475,-120.312078
Confluence Health - Stanley Building,730 N Emerson Ave,47.431945,-120.323007
Safeway 516 1st Ave West,516 1St Ave,47.623603,-122.3577595
Cranberry Road Winery - Tesla Destination,2858 S Forrest St,46.859479,-124.108594
White Salmon Fire Hall,119 NE Church,45.72812,-121.48508
White Salmon Fire Hall-Forth-Public,119 NE Church Ave.,45.72812,-121.48505
Pine Near RV Park,316 Castle Ave,48.476543,-120.180796
Sun Mountain Lodge - Tesla Destination,604 Patterson Lake Rd,48.477487,-120.25638
Guy Waring Guest House,110 Riverside Ave,48.479357,-120.186033
Willows Lodge - Tesla Destination,14850 NE 145th St,47.732864,-122.147196
Patterson Cellars - Tesla Destination,19501 144th Ave NE Suite D500,47.769459,-122.151217
KING COUNTY WTD BRIGHTWATER - 1,22503 WA-9,47.793213,-122.14057
WOODIN CREEK WOODIN CREEK 1,13550 Village Square Dr.,47.752007,-122.157917
KING COUNTY WTD BRIGHTWATER - 2,22503 WA-9,47.793168,-122.140579
"Woodinville WA4-151 (Woodinville, WA)",14003 NE Woodinville Duvall Rd,47.75422,-122.15115
WOODIN CREEK WOODIN CREEK 2,13550 Village Square Dr.,47.752026,-122.157877
KING COUNTY WTD BRIGHTWATER - 3,22503 WA-9,47.793124,-122.140598
BLOCK C LOT 8 STARBUCKS WOODI,13780 NE 175th St,47.754851,-122.155601
WILLOWS LODGE WILLOWS #1,14580 NE 145th St,47.734159,-122.147041
Valley Supply - Woodinville,8310 Maltby Road,47.8045651,-122.1205486
KING COUNTY WTD BRIGHTWATER - 4,22503 WA-9,47.793094,-122.140577
Schoolhouse District,13205 NE 175th St.,47.7534858,-122.1629554
LODGES CHARGER GARAGES,901 S 72nd Ave,46.588986,-120.60055
Holiday Inn Downtown Yakima - Tesla Destination,802 E Yakima Ave,46.604039,-120.494574
VOLVO CAR USA YAKIMA DC2,1312 S 1st St,46.586168,-120.49748
H2S YAKIMA HOME2 ONE,2420 W Nob Hill Blvd,46.584213,-120.541453
VOLVO CAR USA YAKIMA DC1,1312 S 1st St,46.586189,-120.49749
Bob's Burgers & Brew - Tesla Supercharger,121 North Fair Avenue,46.609653,-120.491932
Valley Nissan,1010 S 1st St,46.590246,-120.500687
"Walmart 2269 - Yakima, WA",1600 East Chestnut Ave.,46.60252,-120.47924
Yakima,51 Firing Center Rd,46.677586,-120.47913
Lincoln Conoco,301 N 1st Street,46.60623617299185,-120.50777013069076
Baymont by Wyndham - Tesla Supercharger,1603 E Yakima Ave,46.6053776872519,-120.482764497013
LODGES CHARGER JAIME'S OFFICE,819 S 72nd Ave,46.58914,-120.603074
Leading Force,17 N. 3rd St Ste 101,46.603757,-120.503355
LODGES CHARGER OFFICE,901 S 72nd Ave,46.589108,-120.601588
Harvest Chevrolet,1600 E Yakima Ave,46.604239,-120.481583
3rd Street Parking,17 N 3rd St,46.603762,-120.503347
Safeway 1109 E. Yelm Ave,1109 E. Yelm Ave,46.934055045,-122.593947986
CITY OF ZILLAH P&R NORTH,113 1st Ave,46.405066,-120.270721
CITY OF ZILLAH P&R SOUTH,113 1st Ave,46.405006,-120.270737
Westridge Condos,311 S 174th Pl,47.446823,-122.329489
Pasco,2411 W Court St,46.242178,-119.124215
